{"type":"FeatureCollection","features":[{"type":"Feature","properties":{"siteId":"S-W178523251","district":"Ariyalur","areaSqM":3976244},"geometry":{"type":"Polygon","coordinates":[[[79.147739,11.08488],[79.145379,11.082059],[79.147182,11.079953],[79.147525,11.075699],[79.151044,11.076794],[79.150831,11.074161],[79.149842,11.071698],[79.150673,11.069054],[79.1501,11.064959],[79.152889,11.062727],[79.15379,11.064707],[79.158769,11.064033],[79.160185,11.066728],[79.159327,11.071445],[79.162717,11.072372],[79.16306,11.076247],[79.165463,11.077594],[79.166408,11.087028],[79.161901,11.087533],[79.160766,11.085357],[79.15349,11.087786],[79.148898,11.08787],[79.147739,11.08488]]]}},{"type":"Feature","properties":{"siteId":"S-W178523256","district":"Ariyalur","areaSqM":6944178},"geometry":{"type":"Polygon","coordinates":[[[79.109153,11.168739],[79.108679,11.159677],[79.11019,11.156657],[79.111605,11.155582],[79.112206,11.15453],[79.111004,11.150572],[79.102335,11.150488],[79.104395,11.141056],[79.107013,11.140635],[79.107914,11.139287],[79.1146,11.137461],[79.125209,11.13474],[79.124951,11.133182],[79.126496,11.130697],[79.137697,11.128213],[79.137998,11.124802],[79.140658,11.124255],[79.141731,11.125055],[79.147654,11.125223],[79.149749,11.128305],[79.151816,11.131582],[79.15555,11.133898],[79.154391,11.134698],[79.151001,11.13314],[79.148726,11.134192],[79.148254,11.14194],[79.146023,11.144003],[79.141603,11.144551],[79.141302,11.142108],[79.144177,11.140761],[79.143496,11.135695],[79.131559,11.138298],[79.122559,11.140621],[79.121346,11.141856],[79.120059,11.138866],[79.117956,11.138698],[79.117184,11.140045],[79.120445,11.143035],[79.119859,11.144897],[79.116495,11.147686],[79.116353,11.151776],[79.11521,11.155709],[79.113021,11.157772],[79.113665,11.167329],[79.111616,11.168228],[79.109153,11.168739]]]}},{"type":"Feature","properties":{"siteId":"S-W647027784","district":"Ariyalur","areaSqM":6426306},"geometry":{"type":"Polygon","coordinates":[[[79.246354,11.359464],[79.246354,11.360748],[79.244707,11.3611],[79.244594,11.361442],[79.245163,11.362509],[79.244707,11.362699],[79.243645,11.362567],[79.243618,11.363035],[79.24431,11.366191],[79.242598,11.365902],[79.241316,11.365823],[79.239825,11.365917],[79.238055,11.366291],[79.237114,11.365861],[79.236569,11.36476],[79.235276,11.355867],[79.234304,11.352617],[79.229047,11.348804],[79.227765,11.343608],[79.230892,11.341793],[79.230317,11.338415],[79.2266,11.337052],[79.227507,11.336103],[79.230194,11.331769],[79.230015,11.323628],[79.235334,11.322354],[79.243071,11.322295],[79.243343,11.331036],[79.238447,11.333851],[79.242793,11.336462],[79.243067,11.339685],[79.242527,11.340785],[79.243034,11.345825],[79.243843,11.346803],[79.244328,11.349194],[79.243943,11.349337],[79.2441,11.35046],[79.24434,11.350454],[79.244406,11.352254],[79.245892,11.352164],[79.246942,11.354559],[79.246048,11.354878],[79.246343,11.356251],[79.246874,11.356356],[79.2477,11.358691],[79.246708,11.358902],[79.246354,11.359464]]]}},{"type":"Feature","properties":{"siteId":"S-W1016786105","district":"Chengalpattu","areaSqM":510017},"geometry":{"type":"Polygon","coordinates":[[[79.908671,12.752121],[79.909873,12.755009],[79.911311,12.754444],[79.912062,12.75616],[79.916096,12.75662],[79.916911,12.757395],[79.921804,12.755553],[79.920259,12.753627],[79.917984,12.753397],[79.91719,12.752288],[79.913092,12.753188],[79.912148,12.751283],[79.910667,12.751263],[79.908671,12.752121]]]}},{"type":"Feature","properties":{"siteId":"S-W30118591","district":"Chengalpattu","areaSqM":693557},"geometry":{"type":"Polygon","coordinates":[[[80.112217,12.957832],[80.111633,12.957021],[80.110672,12.957205],[80.10923,12.956687],[80.109127,12.95457],[80.107625,12.954294],[80.107067,12.953541],[80.106998,12.95273],[80.107067,12.951534],[80.105844,12.951406],[80.10601,12.947619],[80.107021,12.947655],[80.108363,12.949583],[80.109658,12.950286],[80.115959,12.952002],[80.116491,12.95227],[80.116594,12.953065],[80.115916,12.956578],[80.115504,12.956603],[80.114619,12.957529],[80.113702,12.956954],[80.113427,12.956352],[80.112217,12.957832]]]}},{"type":"Feature","properties":{"siteId":"S-W522027779","district":"Chengalpattu","areaSqM":997414},"geometry":{"type":"Polygon","coordinates":[[[79.846959,12.481917],[79.854834,12.478586],[79.851809,12.472385],[79.849234,12.473726],[79.847968,12.471253],[79.84211,12.473768],[79.842925,12.475234],[79.843183,12.478607],[79.846959,12.481917]]]}},{"type":"Feature","properties":{"siteId":"S-W1532396103","district":"Coimbatore","areaSqM":1983093},"geometry":{"type":"Polygon","coordinates":[[[77.08158,10.88422],[77.076881,10.881881],[77.071152,10.877477],[77.067504,10.875011],[77.066903,10.876507],[77.069564,10.877982],[77.069371,10.880258],[77.066667,10.879626],[77.062826,10.879478],[77.063684,10.881796],[77.066474,10.883861],[77.066839,10.882702],[77.071731,10.883545],[77.073877,10.885589],[77.07583,10.885926],[77.076023,10.888876],[77.078962,10.889635],[77.078126,10.894481],[77.079864,10.894966],[77.080336,10.89741],[77.081645,10.897178],[77.08246,10.898674],[77.083876,10.898716],[77.083576,10.900149],[77.085013,10.900845],[77.084971,10.902362],[77.090399,10.903626],[77.090507,10.901371],[77.088189,10.900486],[77.088211,10.899454],[77.087266,10.899264],[77.087159,10.897621],[77.085013,10.897494],[77.084391,10.893997],[77.085786,10.890941],[77.079155,10.888729],[77.079778,10.886664],[77.081559,10.88698],[77.08158,10.88422]]]}},{"type":"Feature","properties":{"siteId":"S-W1532396104","district":"Coimbatore","areaSqM":1719403},"geometry":{"type":"Polygon","coordinates":[[[77.039244,10.870754],[77.042227,10.871492],[77.042742,10.869975],[77.045939,10.870754],[77.045918,10.874653],[77.050595,10.876339],[77.050874,10.875264],[77.051625,10.875411],[77.051132,10.877097],[77.052398,10.877961],[77.052033,10.878867],[77.053707,10.880216],[77.053385,10.882028],[77.056239,10.882702],[77.055638,10.884304],[77.054243,10.883903],[77.053514,10.886263],[77.052355,10.885926],[77.052376,10.884936],[77.049286,10.884725],[77.049158,10.884114],[77.045231,10.883651],[77.04375,10.882745],[77.044287,10.881248],[77.040145,10.879331],[77.038107,10.877266],[77.038558,10.874547],[77.038064,10.874316],[77.0386,10.872082],[77.039244,10.870754]]]}},{"type":"Feature","properties":{"siteId":"S-W66134320","district":"Coimbatore","areaSqM":1266069},"geometry":{"type":"Polygon","coordinates":[[[76.954475,10.928164],[76.951087,10.929142],[76.947235,10.929012],[76.93714,10.926925],[76.937007,10.925947],[76.943564,10.925257],[76.94809,10.924942],[76.948564,10.926078],[76.949851,10.926256],[76.949455,10.920639],[76.949826,10.917404],[76.95474,10.916947],[76.956799,10.918056],[76.95666,10.92143],[76.959687,10.925329],[76.959788,10.926208],[76.959257,10.926729],[76.953146,10.921969],[76.952084,10.923208],[76.954475,10.928164]]]}},{"type":"Feature","properties":{"siteId":"S-W56146167","district":"Cuddalore","areaSqM":25538974},"geometry":{"type":"Polygon","coordinates":[[[79.448918,11.50692],[79.466116,11.506049],[79.480591,11.49708],[79.512417,11.489906],[79.517537,11.504013],[79.515923,11.516848],[79.509816,11.526905],[79.502803,11.532674],[79.494848,11.531603],[79.483018,11.529873],[79.476181,11.528629],[79.468658,11.531097],[79.466855,11.531549],[79.464795,11.531917],[79.463379,11.532526],[79.462723,11.534597],[79.452465,11.52988],[79.450497,11.524945],[79.447732,11.514765],[79.448918,11.50692]]]}},{"type":"Feature","properties":{"siteId":"S-W56400658","district":"Cuddalore","areaSqM":10588838},"geometry":{"type":"Polygon","coordinates":[[[79.447854,11.536024],[79.435229,11.534857],[79.431179,11.531006],[79.41637,11.529142],[79.416794,11.499435],[79.422273,11.494577],[79.432581,11.499867],[79.438802,11.506964],[79.442733,11.519569],[79.44583,11.519919],[79.447854,11.536024]]]}},{"type":"Feature","properties":{"siteId":"S-W982810559","district":"Cuddalore","areaSqM":20896058},"geometry":{"type":"Polygon","coordinates":[[[79.503354,11.573009],[79.520622,11.576422],[79.523801,11.578789],[79.525505,11.577842],[79.529676,11.577992],[79.539391,11.57555],[79.540129,11.574852],[79.539824,11.568299],[79.539366,11.564811],[79.538527,11.561298],[79.536034,11.556788],[79.53316,11.553051],[79.529117,11.550409],[79.522937,11.547793],[79.509356,11.544828],[79.5002,11.542012],[79.494656,11.541364],[79.486899,11.540941],[79.482168,11.54124],[79.474513,11.541065],[79.473165,11.544952],[79.471182,11.552029],[79.470215,11.560376],[79.47876,11.561149],[79.478938,11.567602],[79.476166,11.571937],[79.479269,11.574503],[79.480973,11.583548],[79.486085,11.574204],[79.487051,11.571339],[79.491477,11.570168],[79.488577,11.561223],[79.494478,11.555193],[79.50226,11.556489],[79.504345,11.565559],[79.500632,11.56521],[79.503354,11.573009]]]}},{"type":"Feature","properties":{"siteId":"S-W169356604","district":"Dharmapuri","areaSqM":783918},"geometry":{"type":"Polygon","coordinates":[[[77.944605,12.480375],[77.942469,12.476735],[77.942437,12.474682],[77.946954,12.474216],[77.947858,12.475612],[77.949878,12.475259],[77.95001,12.474409],[77.954658,12.47335],[77.95479,12.47558],[77.95364,12.4772],[77.954757,12.478723],[77.9552,12.480279],[77.953032,12.480825],[77.951357,12.478451],[77.948662,12.479365],[77.948219,12.480857],[77.945295,12.481097],[77.944605,12.480375]]]}},{"type":"Feature","properties":{"siteId":"S-W607113537","district":"Dharmapuri","areaSqM":31419},"geometry":{"type":"Polygon","coordinates":[[[78.517222,12.056565],[78.516726,12.056833],[78.516388,12.056788],[78.515645,12.056096],[78.51557,12.05597],[78.515602,12.055791],[78.516433,12.05523],[78.517023,12.055516],[78.517018,12.054975],[78.517581,12.055162],[78.517852,12.056502],[78.517801,12.056578],[78.517222,12.056565]]]}},{"type":"Feature","properties":{"siteId":"S-W129673966","district":"Dindigul","areaSqM":5089054},"geometry":{"type":"Polygon","coordinates":[[[78.054225,10.720363],[78.05327,10.712146],[78.054075,10.705417],[78.057298,10.698885],[78.062334,10.698984],[78.064147,10.700963],[78.065589,10.695702],[78.070954,10.694969],[78.078182,10.699582],[78.077549,10.705623],[78.083101,10.70976],[78.084181,10.712396],[78.07279,10.711541],[78.065642,10.708915],[78.063744,10.711453],[78.063543,10.716104],[78.060791,10.717544],[78.059517,10.720481],[78.057237,10.723345],[78.054225,10.720363]]]}},{"type":"Feature","properties":{"siteId":"S-W1299543124","district":"Dindigul","areaSqM":165962},"geometry":{"type":"Polygon","coordinates":[[[78.244516,10.242918],[78.24413,10.242485],[78.240761,10.242395],[78.239903,10.24248],[78.239007,10.243641],[78.23891,10.244042],[78.239307,10.244691],[78.240831,10.244866],[78.240949,10.24362],[78.2417,10.243461],[78.242558,10.244169],[78.242558,10.244887],[78.242097,10.245911],[78.242708,10.24665],[78.244039,10.245911],[78.244811,10.244802],[78.244516,10.242918]]]}},{"type":"Feature","properties":{"siteId":"S-W297545910","district":"Dindigul","areaSqM":491999},"geometry":{"type":"Polygon","coordinates":[[[78.108474,10.712346],[78.108632,10.710094],[78.109634,10.708101],[78.113875,10.709628],[78.119927,10.715694],[78.121462,10.718002],[78.122044,10.719328],[78.121972,10.719486],[78.118973,10.717212],[78.116421,10.714439],[78.114853,10.712963],[78.113138,10.713175],[78.109028,10.71333],[78.108474,10.712346]]]}},{"type":"Feature","properties":{"siteId":"S-W217269548","district":"Erode","areaSqM":86582},"geometry":{"type":"Polygon","coordinates":[[[77.883432,11.033991],[77.883593,11.033317],[77.883411,11.033275],[77.883464,11.033075],[77.883325,11.032127],[77.883507,11.031917],[77.883593,11.031569],[77.883711,11.030527],[77.883786,11.030379],[77.884805,11.030685],[77.885148,11.030369],[77.885738,11.030895],[77.885646,11.031112],[77.88599,11.031385],[77.886178,11.031674],[77.886194,11.031975],[77.884406,11.034087],[77.883432,11.033991]]]}},{"type":"Feature","properties":{"siteId":"S-W823591866","district":"Erode","areaSqM":222307},"geometry":{"type":"Polygon","coordinates":[[[77.569442,11.196063],[77.568004,11.196284],[77.567993,11.197757],[77.566502,11.197884],[77.56603,11.19941],[77.56515,11.20082],[77.56588,11.202767],[77.568476,11.202967],[77.569034,11.199694],[77.569442,11.197915],[77.569442,11.196063]]]}},{"type":"Feature","properties":{"siteId":"S-W83800639","district":"Erode","areaSqM":86411},"geometry":{"type":"Polygon","coordinates":[[[77.757675,11.28078],[77.757575,11.280433],[77.757616,11.280229],[77.757825,11.279693],[77.758051,11.279418],[77.759398,11.279532],[77.759282,11.278367],[77.759886,11.278331],[77.759826,11.278897],[77.760318,11.278953],[77.760467,11.278337],[77.760246,11.278313],[77.760338,11.27798],[77.760474,11.27798],[77.760459,11.27787],[77.76086,11.277913],[77.760909,11.277782],[77.761345,11.27779],[77.761369,11.277965],[77.762059,11.278064],[77.761931,11.278808],[77.761712,11.278787],[77.761602,11.279596],[77.760437,11.279506],[77.760533,11.281189],[77.759587,11.281353],[77.759596,11.280597],[77.759513,11.280548],[77.759039,11.280707],[77.757675,11.28078]]]}},{"type":"Feature","properties":{"siteId":"S-W1119090151","district":"Kallakurichi","areaSqM":30283},"geometry":{"type":"Polygon","coordinates":[[[79.204345,11.668082],[79.20453,11.668263],[79.204838,11.668339],[79.205064,11.668694],[79.205651,11.668439],[79.206107,11.668339],[79.206319,11.668192],[79.206426,11.667948],[79.205909,11.667499],[79.205512,11.666852],[79.205246,11.666616],[79.204659,11.667094],[79.204503,11.667359],[79.204406,11.667814],[79.204286,11.667945],[79.204345,11.668082]]]}},{"type":"Feature","properties":{"siteId":"S-W815790484","district":"Kallakurichi","areaSqM":188827},"geometry":{"type":"Polygon","coordinates":[[[79.014101,11.683085],[79.014101,11.68422],[79.013457,11.684472],[79.013178,11.685061],[79.010818,11.685775],[79.00981,11.686469],[79.003415,11.684914],[79.003366,11.684298],[79.006591,11.68401],[79.010625,11.684851],[79.011719,11.684388],[79.011955,11.683485],[79.014101,11.683085]]]}},{"type":"Feature","properties":{"siteId":"S-W1016786109","district":"Kanchipuram","areaSqM":2694950},"geometry":{"type":"Polygon","coordinates":[[[79.841337,12.720496],[79.841509,12.716624],[79.845929,12.716477],[79.847817,12.71294],[79.847453,12.711642],[79.845736,12.711223],[79.845414,12.709486],[79.847496,12.709067],[79.848311,12.71116],[79.84992,12.712186],[79.851916,12.712563],[79.853482,12.713756],[79.853311,12.715577],[79.851744,12.717796],[79.852173,12.71991],[79.854684,12.719114],[79.856336,12.718926],[79.856401,12.720831],[79.85595,12.722233],[79.856358,12.723468],[79.857945,12.72307],[79.858975,12.724954],[79.858096,12.725561],[79.85477,12.725415],[79.854834,12.726649],[79.857581,12.72845],[79.857538,12.731003],[79.85919,12.734519],[79.859726,12.734896],[79.8611,12.738161],[79.860778,12.739228],[79.859662,12.739877],[79.857452,12.739731],[79.856765,12.737994],[79.855478,12.73521],[79.854383,12.734666],[79.852967,12.734184],[79.853354,12.73184],[79.852796,12.730815],[79.851379,12.729663],[79.849813,12.729726],[79.849191,12.728345],[79.848783,12.728575],[79.848268,12.72935],[79.847238,12.729412],[79.845994,12.727843],[79.845865,12.726063],[79.845092,12.723698],[79.846058,12.720056],[79.844642,12.71947],[79.842839,12.720538],[79.841337,12.720496]]]}},{"type":"Feature","properties":{"siteId":"S-W202471886","district":"Kanchipuram","areaSqM":1729466},"geometry":{"type":"Polygon","coordinates":[[[79.895,12.840854],[79.897566,12.842855],[79.898261,12.842199],[79.904867,12.842321],[79.908127,12.848843],[79.907918,12.853123],[79.900351,12.853694],[79.897383,12.850229],[79.893119,12.849454],[79.891781,12.843259],[79.895,12.840854]]]}},{"type":"Feature","properties":{"siteId":"S-W548835208","district":"Kanniyakumari","areaSqM":220628},"geometry":{"type":"Polygon","coordinates":[[[77.522777,8.18743],[77.522195,8.186726],[77.52132,8.186984],[77.521082,8.188075],[77.519754,8.188399],[77.519647,8.188943],[77.519692,8.189642],[77.51834,8.189934],[77.518512,8.19124],[77.519982,8.191038],[77.520824,8.192387],[77.520808,8.193358],[77.521441,8.193443],[77.521822,8.192562],[77.523152,8.190326],[77.523791,8.19021],[77.524236,8.189472],[77.523254,8.1891],[77.523168,8.187828],[77.522777,8.18743]]]}},{"type":"Feature","properties":{"siteId":"S-W551624070","district":"Kanniyakumari","areaSqM":306162},"geometry":{"type":"Polygon","coordinates":[[[77.377127,8.213869],[77.376741,8.214177],[77.376301,8.214326],[77.376366,8.216173],[77.37614,8.216725],[77.37658,8.217681],[77.376462,8.218541],[77.376151,8.2192],[77.375572,8.220134],[77.3751,8.220474],[77.374338,8.220187],[77.373555,8.220176],[77.373598,8.220994],[77.37451,8.221015],[77.375153,8.221695],[77.375379,8.222491],[77.375497,8.223882],[77.376194,8.223872],[77.376913,8.223585],[77.377063,8.222969],[77.376312,8.222013],[77.376441,8.221345],[77.3776,8.220559],[77.380228,8.219943],[77.380636,8.21886],[77.377889,8.218032],[77.377782,8.217161],[77.380335,8.217182],[77.3804,8.216269],[77.378973,8.216258],[77.378393,8.215823],[77.378125,8.215143],[77.3782,8.214028],[77.377878,8.213476],[77.377127,8.213869]]]}},{"type":"Feature","properties":{"siteId":"S-W1009415242","district":"Karur","areaSqM":765905},"geometry":{"type":"Polygon","coordinates":[[[78.394033,10.744956],[78.394323,10.74454],[78.394641,10.743789],[78.39582,10.742131],[78.396206,10.742142],[78.396903,10.741694],[78.398749,10.739127],[78.399323,10.738484],[78.39965,10.738331],[78.400111,10.7384],[78.400433,10.738653],[78.40076,10.738384],[78.401029,10.737256],[78.400701,10.736982],[78.400632,10.736555],[78.400712,10.735596],[78.400862,10.735533],[78.400814,10.735021],[78.401088,10.734832],[78.401291,10.7349],[78.401243,10.7345],[78.401758,10.734294],[78.401629,10.733983],[78.402225,10.733762],[78.402423,10.733535],[78.403035,10.73324],[78.402944,10.733008],[78.402981,10.732676],[78.404129,10.731659],[78.405529,10.730684],[78.407638,10.730035],[78.40966,10.728554],[78.409359,10.730763],[78.408437,10.732839],[78.406329,10.733098],[78.405862,10.734004],[78.404194,10.73393],[78.40392,10.734526],[78.403673,10.734747],[78.40363,10.735306],[78.402772,10.735522],[78.402799,10.737072],[78.401919,10.737114],[78.401962,10.73918],[78.40179,10.739369],[78.401157,10.741045],[78.400396,10.741262],[78.399376,10.742216],[78.398711,10.742305],[78.398529,10.742632],[78.398979,10.743459],[78.399146,10.744013],[78.399543,10.744139],[78.400015,10.744108],[78.400149,10.74639],[78.399044,10.746158],[78.399033,10.74561],[78.397917,10.745657],[78.397933,10.74513],[78.396839,10.745193],[78.396844,10.745341],[78.396056,10.745525],[78.395911,10.745868],[78.395739,10.746996],[78.393593,10.747201],[78.39347,10.747391],[78.39303,10.747544],[78.392966,10.747971],[78.392542,10.747886],[78.39258,10.748371],[78.391045,10.748593],[78.390938,10.748192],[78.390498,10.748308],[78.391303,10.747201],[78.391523,10.746769],[78.392708,10.746369],[78.393357,10.74581],[78.394033,10.744956]]]}},{"type":"Feature","properties":{"siteId":"S-W1023111996","district":"Karur","areaSqM":560382},"geometry":{"type":"Polygon","coordinates":[[[77.77639,11.053229],[77.776551,11.051813],[77.776374,11.050218],[77.776396,11.049607],[77.776583,11.048733],[77.77741,11.048817],[77.777764,11.049402],[77.778177,11.049786],[77.778938,11.049902],[77.779491,11.050102],[77.779416,11.050681],[77.779598,11.051029],[77.780269,11.051423],[77.781159,11.051502],[77.781841,11.051202],[77.78227,11.051218],[77.782661,11.051381],[77.784222,11.051344],[77.785386,11.050828],[77.78559,11.050823],[77.785757,11.05106],[77.785698,11.052208],[77.786164,11.052313],[77.786191,11.053408],[77.786036,11.054198],[77.785526,11.055293],[77.784646,11.055667],[77.784099,11.055788],[77.783187,11.05782],[77.782125,11.057294],[77.782264,11.056309],[77.781739,11.056346],[77.780639,11.055946],[77.77999,11.055809],[77.779867,11.055983],[77.778917,11.055804],[77.778928,11.054582],[77.77867,11.054551],[77.778252,11.054224],[77.778204,11.053829],[77.777694,11.053535],[77.7772,11.053003],[77.77639,11.053229]]]}},{"type":"Feature","properties":{"siteId":"S-W1422346281","district":"Krishnagiri","areaSqM":570631},"geometry":{"type":"Polygon","coordinates":[[[77.959585,12.660396],[77.95951,12.659401],[77.960089,12.659087],[77.960347,12.658313],[77.959918,12.657957],[77.959832,12.657308],[77.960283,12.657119],[77.960497,12.656868],[77.961162,12.656889],[77.962793,12.65735],[77.964617,12.656952],[77.964681,12.656638],[77.965583,12.656638],[77.967331,12.659328],[77.967353,12.660898],[77.966988,12.663117],[77.964628,12.663494],[77.964242,12.664625],[77.962954,12.664792],[77.962546,12.663704],[77.960787,12.663746],[77.959585,12.660396]]]}},{"type":"Feature","properties":{"siteId":"S-W534846600","district":"Krishnagiri","areaSqM":835236},"geometry":{"type":"Polygon","coordinates":[[[77.948685,12.74714],[77.947354,12.748061],[77.946796,12.74827],[77.946281,12.74827],[77.945251,12.747768],[77.943106,12.747265],[77.942677,12.746972],[77.942419,12.746554],[77.942247,12.746009],[77.942247,12.744837],[77.942634,12.743247],[77.942548,12.742117],[77.942204,12.741698],[77.939243,12.739773],[77.938042,12.738475],[77.936711,12.737638],[77.936454,12.737177],[77.936368,12.735545],[77.935724,12.732782],[77.93551,12.73228],[77.934566,12.73115],[77.934651,12.730647],[77.93654,12.730103],[77.937012,12.730312],[77.939157,12.733243],[77.940359,12.734331],[77.940617,12.734749],[77.940874,12.735294],[77.940831,12.737722],[77.941003,12.738642],[77.942762,12.740442],[77.944651,12.740693],[77.945595,12.741196],[77.945938,12.741656],[77.946625,12.743205],[77.947011,12.745172],[77.947268,12.745633],[77.948127,12.746261],[77.948685,12.74714]]]}},{"type":"Feature","properties":{"siteId":"S-W177370710","district":"Madurai","areaSqM":1900334},"geometry":{"type":"Polygon","coordinates":[[[78.433069,10.076539],[78.430826,10.071716],[78.432284,10.068734],[78.43558,10.069655],[78.438093,10.070205],[78.44014,10.071856],[78.444347,10.071581],[78.443823,10.074328],[78.444099,10.075913],[78.445782,10.078159],[78.449147,10.077238],[78.454194,10.077312],[78.456139,10.080588],[78.454082,10.082797],[78.450381,10.084012],[78.445856,10.082687],[78.44365,10.080441],[78.439799,10.078821],[78.436509,10.076833],[78.433069,10.076539]]]}},{"type":"Feature","properties":{"siteId":"S-W177370711","district":"Madurai","areaSqM":3501574},"geometry":{"type":"Polygon","coordinates":[[[78.384086,10.057724],[78.383899,10.056013],[78.383936,10.054982],[78.382123,10.054024],[78.383993,10.05281],[78.386367,10.053785],[78.387937,10.053583],[78.389638,10.054521],[78.393377,10.054043],[78.395696,10.055663],[78.398649,10.056031],[78.401155,10.055074],[78.404931,10.057319],[78.410203,10.057614],[78.415064,10.059418],[78.416858,10.059492],[78.420036,10.063136],[78.424635,10.064498],[78.425795,10.06667],[78.422766,10.068658],[78.421682,10.070904],[78.418616,10.071088],[78.415288,10.069652],[78.410016,10.067775],[78.405791,10.064646],[78.397266,10.062437],[78.393789,10.059676],[78.389526,10.056068],[78.387171,10.057504],[78.385301,10.058387],[78.384086,10.057724]]]}},{"type":"Feature","properties":{"siteId":"S-W645607780","district":"Nagapattinam","areaSqM":165886},"geometry":{"type":"Polygon","coordinates":[[[79.745314,10.565046],[79.746065,10.56511],[79.746602,10.564582],[79.746602,10.563781],[79.747288,10.563],[79.747524,10.563085],[79.74834,10.562389],[79.748533,10.561355],[79.748511,10.560532],[79.749262,10.560195],[79.749177,10.559604],[79.748426,10.55876],[79.747728,10.558665],[79.747441,10.558874],[79.747436,10.559301],[79.746953,10.559396],[79.746658,10.559538],[79.746666,10.559857],[79.746473,10.56049],[79.746044,10.560659],[79.745593,10.560574],[79.745432,10.561062],[79.745665,10.561576],[79.745309,10.561911],[79.745263,10.562526],[79.746076,10.56266],[79.745859,10.563145],[79.746189,10.563712],[79.744928,10.563591],[79.744649,10.564646],[79.745314,10.565046]]]}},{"type":"Feature","properties":{"siteId":"S-W82865093","district":"Namakkal","areaSqM":675526},"geometry":{"type":"Polygon","coordinates":[[[77.786082,11.474496],[77.786263,11.475037],[77.787237,11.475595],[77.788113,11.475562],[77.78861,11.475212],[77.788865,11.475183],[77.789129,11.475237],[77.789278,11.475716],[77.789452,11.475925],[77.790218,11.476062],[77.791009,11.4759],[77.791306,11.475491],[77.790911,11.47497],[77.790834,11.474749],[77.790851,11.474312],[77.79069,11.473854],[77.790698,11.473608],[77.79052,11.473349],[77.790073,11.473353],[77.789282,11.471882],[77.789244,11.471657],[77.789559,11.471349],[77.789508,11.471141],[77.789133,11.471066],[77.788882,11.470949],[77.788776,11.470799],[77.788402,11.470678],[77.788347,11.470228],[77.787998,11.469374],[77.78753,11.46944],[77.786759,11.468464],[77.786727,11.467537],[77.786466,11.467266],[77.786296,11.467188],[77.786068,11.46723],[77.785871,11.46712],[77.785802,11.466719],[77.78602,11.466099],[77.786402,11.465797],[77.786137,11.46525],[77.785866,11.464349],[77.786695,11.463958],[77.786105,11.462771],[77.785419,11.463177],[77.785028,11.463287],[77.784741,11.462177],[77.784475,11.461818],[77.784496,11.461677],[77.784289,11.461229],[77.78304,11.461589],[77.783008,11.461745],[77.783662,11.464537],[77.784108,11.464737],[77.784049,11.465265],[77.784155,11.467225],[77.783989,11.467225],[77.783039,11.466515],[77.782634,11.466313],[77.782507,11.466111],[77.782308,11.465226],[77.782202,11.465024],[77.782009,11.464939],[77.782019,11.464138],[77.781617,11.464055],[77.78143,11.464442],[77.781304,11.465022],[77.781427,11.465175],[77.78141,11.465615],[77.781311,11.465648],[77.781407,11.465889],[77.781352,11.466145],[77.781135,11.466055],[77.780839,11.465735],[77.780731,11.465755],[77.780741,11.467038],[77.781112,11.467243],[77.781601,11.467306],[77.782664,11.467238],[77.782701,11.468082],[77.782579,11.468327],[77.782722,11.469389],[77.783727,11.469389],[77.783764,11.470176],[77.782669,11.470181],[77.782522,11.47038],[77.782531,11.471789],[77.782909,11.471664],[77.783173,11.471684],[77.783398,11.47186],[77.784385,11.471839],[77.784559,11.471614],[77.784572,11.471355],[77.78467,11.471226],[77.785567,11.471176],[77.785665,11.471401],[77.785757,11.4714],[77.785768,11.472895],[77.786082,11.474496]]]}},{"type":"Feature","properties":{"siteId":"S-W910321876","district":"Namakkal","areaSqM":579744},"geometry":{"type":"Polygon","coordinates":[[[77.954714,11.071824],[77.956796,11.070098],[77.959113,11.071424],[77.966967,11.078458],[77.972782,11.08189],[77.973404,11.08269],[77.97143,11.084649],[77.967074,11.0809],[77.958469,11.073909],[77.954714,11.071824]]]}},{"type":"Feature","properties":{"siteId":"S-W1000546399","district":"Perambalur","areaSqM":968788},"geometry":{"type":"Polygon","coordinates":[[[78.836346,11.116801],[78.839264,11.113517],[78.845487,11.110232],[78.848405,11.111327],[78.849435,11.116338],[78.8451,11.117223],[78.842697,11.120718],[78.840251,11.120549],[78.837891,11.119286],[78.836346,11.116801]]]}},{"type":"Feature","properties":{"siteId":"S-W1000546401","district":"Perambalur","areaSqM":1728551},"geometry":{"type":"Polygon","coordinates":[[[78.910353,11.219427],[78.913679,11.217953],[78.917713,11.217785],[78.920395,11.218037],[78.923721,11.217995],[78.927541,11.219574],[78.928034,11.22111],[78.930609,11.221616],[78.93091,11.2225],[78.929923,11.224015],[78.92915,11.226751],[78.924258,11.226688],[78.920975,11.225594],[78.920288,11.226604],[78.91928,11.226583],[78.917778,11.225762],[78.915761,11.22633],[78.913722,11.225993],[78.913357,11.222015],[78.910782,11.22231],[78.910911,11.223489],[78.90928,11.223531],[78.909237,11.222415],[78.909795,11.22231],[78.909473,11.220205],[78.910353,11.219427]]]}},{"type":"Feature","properties":{"siteId":"S-W175584075","district":"Pudukkottai","areaSqM":544553},"geometry":{"type":"Polygon","coordinates":[[[78.767438,10.521124],[78.767084,10.519937],[78.768613,10.519415],[78.769546,10.518481],[78.772685,10.519668],[78.774165,10.519478],[78.775637,10.518558],[78.7774,10.518829],[78.776869,10.520332],[78.776918,10.522943],[78.775888,10.525174],[78.773168,10.52508],[78.770415,10.52326],[78.767438,10.521124]]]}},{"type":"Feature","properties":{"siteId":"S-W555516022","district":"Pudukkottai","areaSqM":301585},"geometry":{"type":"Polygon","coordinates":[[[78.792862,10.387564],[78.791885,10.387944],[78.791896,10.389421],[78.792679,10.389189],[78.793622,10.38985],[78.793581,10.390941],[78.792958,10.391194],[78.793012,10.391574],[78.794376,10.393075],[78.795031,10.392819],[78.795434,10.39278],[78.795856,10.39312],[78.797164,10.393294],[78.797904,10.392556],[78.79843,10.392228],[78.798258,10.390656],[78.798001,10.389875],[78.797346,10.38901],[78.796569,10.388799],[78.796086,10.388791],[78.795925,10.388486],[78.795582,10.38835],[78.795362,10.387638],[78.795029,10.387005],[78.79386,10.387627],[78.792862,10.387564]]]}},{"type":"Feature","properties":{"siteId":"S-W725193693","district":"Ramanathapuram","areaSqM":31357},"geometry":{"type":"Polygon","coordinates":[[[78.471214,9.588071],[78.471914,9.588106],[78.471868,9.587564],[78.472373,9.587706],[78.47259,9.587307],[78.472633,9.586947],[78.472434,9.586939],[78.47237,9.586696],[78.471675,9.586688],[78.471597,9.586635],[78.471592,9.586122],[78.47126,9.586133],[78.471152,9.585963],[78.470659,9.586064],[78.470535,9.586194],[78.470535,9.586413],[78.47064,9.586471],[78.470712,9.586709],[78.470704,9.587021],[78.470889,9.587061],[78.470967,9.587286],[78.470986,9.587929],[78.471214,9.588071]]]}},{"type":"Feature","properties":{"siteId":"S-W1031396681","district":"Ranipet","areaSqM":5845213},"geometry":{"type":"Polygon","coordinates":[[[79.442868,12.872598],[79.445765,12.876049],[79.445357,12.882638],[79.43392,12.88337],[79.428921,12.882868],[79.422569,12.880254],[79.405811,12.87471],[79.396691,12.872953],[79.393559,12.872577],[79.394932,12.868226],[79.403815,12.869564],[79.409952,12.869899],[79.422977,12.869146],[79.429736,12.867263],[79.433577,12.865506],[79.436259,12.865318],[79.43701,12.866761],[79.435165,12.867703],[79.435015,12.869627],[79.437182,12.871133],[79.438856,12.8731],[79.441602,12.872932],[79.442868,12.872598]]]}},{"type":"Feature","properties":{"siteId":"S-W910550467","district":"Ranipet","areaSqM":1965183},"geometry":{"type":"Polygon","coordinates":[[[79.389439,12.930765],[79.389846,12.934027],[79.391027,12.935261],[79.390469,12.936516],[79.388001,12.937541],[79.388194,12.938942],[79.387658,12.941472],[79.386241,12.942016],[79.386156,12.943877],[79.387701,12.943877],[79.389911,12.943585],[79.3924,12.943585],[79.394116,12.945383],[79.396284,12.946491],[79.400146,12.946889],[79.399245,12.944526],[79.399352,12.941347],[79.398859,12.939214],[79.398537,12.93729],[79.399545,12.934843],[79.399502,12.931037],[79.396434,12.92882],[79.393709,12.928966],[79.391563,12.929991],[79.390276,12.930117],[79.389439,12.930765]]]}},{"type":"Feature","properties":{"siteId":"S-W175237649","district":"Salem","areaSqM":799381},"geometry":{"type":"Polygon","coordinates":[[[77.808183,11.473649],[77.810631,11.471629],[77.812667,11.470214],[77.818518,11.473144],[77.819291,11.475594],[77.813879,11.477084],[77.812977,11.478574],[77.810735,11.477716],[77.80893,11.479408],[77.806611,11.477741],[77.806791,11.475367],[77.808183,11.473649]]]}},{"type":"Feature","properties":{"siteId":"S-W178473259","district":"Salem","areaSqM":1321642},"geometry":{"type":"Polygon","coordinates":[[[77.847767,11.564851],[77.851454,11.565174],[77.856009,11.565306],[77.858572,11.56419],[77.861974,11.562325],[77.864997,11.561914],[77.864849,11.560378],[77.861924,11.559734],[77.859487,11.561001],[77.857261,11.560502],[77.855227,11.558488],[77.852344,11.559942],[77.852069,11.557616],[77.848254,11.558841],[77.844715,11.558551],[77.841408,11.558135],[77.839967,11.560399],[77.841641,11.562184],[77.847003,11.562807],[77.847767,11.564851]]]}},{"type":"Feature","properties":{"siteId":"S-W1154700242","district":"Sivaganga","areaSqM":180532},"geometry":{"type":"Polygon","coordinates":[[[78.654561,10.121844],[78.655345,10.122334],[78.656331,10.122798],[78.657154,10.123084],[78.657478,10.12263],[78.658499,10.122555],[78.661833,10.121385],[78.663049,10.120823],[78.663739,10.12027],[78.663265,10.1198],[78.662082,10.120196],[78.661921,10.119865],[78.660872,10.120129],[78.660376,10.119878],[78.659322,10.120147],[78.658268,10.120217],[78.657972,10.120123],[78.654561,10.121844]]]}},{"type":"Feature","properties":{"siteId":"S-W297525516","district":"Sivaganga","areaSqM":141816},"geometry":{"type":"Polygon","coordinates":[[[78.399385,9.888062],[78.399461,9.889457],[78.405627,9.891376],[78.406354,9.890803],[78.405831,9.889829],[78.400596,9.887852],[78.399385,9.888062]]]}},{"type":"Feature","properties":{"siteId":"S-W1363590609","district":"Tenkasi","areaSqM":38887},"geometry":{"type":"Polygon","coordinates":[[[77.23747,8.989566],[77.237003,8.98946],[77.236459,8.989923],[77.236177,8.990111],[77.235976,8.99013],[77.23585,8.990262],[77.235856,8.99133],[77.235898,8.991497],[77.23621,8.991802],[77.236317,8.991855],[77.236518,8.991735],[77.236617,8.991518],[77.2368,8.991375],[77.237462,8.991123],[77.237894,8.990615],[77.237773,8.989976],[77.237687,8.98977],[77.23747,8.989566]]]}},{"type":"Feature","properties":{"siteId":"S-W204957218","district":"Tenkasi","areaSqM":244105},"geometry":{"type":"Polygon","coordinates":[[[77.386055,9.091549],[77.387287,9.090099],[77.388965,9.089866],[77.391036,9.090177],[77.392452,9.091419],[77.391875,9.093775],[77.389751,9.094344],[77.389017,9.093309],[77.386737,9.093076],[77.385898,9.092273],[77.386055,9.091549]]]}},{"type":"Feature","properties":{"siteId":"S-W1078863162","district":"Thanjavur","areaSqM":168197},"geometry":{"type":"Polygon","coordinates":[[[79.210224,10.938485],[79.214773,10.939159],[79.216629,10.939643],[79.217176,10.941276],[79.216865,10.941919],[79.21634,10.942372],[79.209849,10.939306],[79.210224,10.938485]]]}},{"type":"Feature","properties":{"siteId":"S-W1543174845","district":"The Nilgiris","areaSqM":35258},"geometry":{"type":"Polygon","coordinates":[[[76.543164,11.319385],[76.543808,11.319385],[76.544275,11.31958],[76.545036,11.319296],[76.5456,11.31918],[76.545836,11.320017],[76.544613,11.320585],[76.544028,11.3205],[76.543449,11.320848],[76.543068,11.320369],[76.543164,11.319385]]]}},{"type":"Feature","properties":{"siteId":"S-W1509428376","district":"Theni","areaSqM":232057},"geometry":{"type":"Polygon","coordinates":[[[77.402673,10.003054],[77.405999,10.003265],[77.40661,10.005146],[77.408016,10.005473],[77.40822,10.006889],[77.406986,10.007196],[77.402812,10.007481],[77.402222,10.004448],[77.402694,10.004248],[77.402673,10.003054]]]}},{"type":"Feature","properties":{"siteId":"S-W977532854","district":"Theni","areaSqM":279093},"geometry":{"type":"Polygon","coordinates":[[[77.547958,10.014016],[77.54818,10.015109],[77.548586,10.015315],[77.548993,10.016698],[77.547835,10.017597],[77.547428,10.018337],[77.547526,10.019041],[77.54829,10.020036],[77.54781,10.020024],[77.548007,10.02074],[77.547625,10.02108],[77.547798,10.022002],[77.547489,10.021844],[77.54691,10.02182],[77.546627,10.022026],[77.547046,10.022754],[77.5476,10.022888],[77.548586,10.023653],[77.54903,10.023701],[77.549005,10.022378],[77.549166,10.021978],[77.549079,10.020582],[77.548833,10.018786],[77.549498,10.018482],[77.550607,10.017512],[77.549843,10.01591],[77.550349,10.015473],[77.550694,10.015849],[77.551359,10.015497],[77.552025,10.015618],[77.552173,10.015169],[77.551754,10.014368],[77.551224,10.013701],[77.550965,10.01313],[77.551002,10.012912],[77.550238,10.011783],[77.54972,10.011286],[77.549116,10.011079],[77.548919,10.011516],[77.549276,10.012208],[77.549166,10.012475],[77.549276,10.012791],[77.549116,10.013179],[77.549387,10.013931],[77.548981,10.013919],[77.548931,10.013701],[77.548512,10.013749],[77.547958,10.014016]]]}},{"type":"Feature","properties":{"siteId":"S-W1250353895","district":"Thiruvallur","areaSqM":1222951},"geometry":{"type":"Polygon","coordinates":[[[79.59187,13.276913],[79.588115,13.277999],[79.587643,13.280443],[79.589639,13.282322],[79.593909,13.283533],[79.59584,13.284807],[79.598866,13.28604],[79.605281,13.287251],[79.607577,13.286896],[79.607577,13.286436],[79.605603,13.284244],[79.605131,13.282385],[79.601784,13.28086],[79.600239,13.277958],[79.598715,13.277958],[79.59687,13.280338],[79.595325,13.281424],[79.594638,13.279461],[79.593544,13.277227],[79.59187,13.276913]]]}},{"type":"Feature","properties":{"siteId":"S-W553897176","district":"Thiruvallur","areaSqM":587817},"geometry":{"type":"Polygon","coordinates":[[[80.120212,13.233867],[80.120212,13.234525],[80.121532,13.234828],[80.121671,13.235517],[80.122851,13.236092],[80.123763,13.236442],[80.125448,13.23628],[80.125684,13.23817],[80.126231,13.238233],[80.126864,13.237188],[80.127239,13.237084],[80.127701,13.236092],[80.129503,13.23652],[80.132657,13.236134],[80.133559,13.235058],[80.132486,13.232729],[80.130833,13.231538],[80.129782,13.230985],[80.128645,13.231946],[80.127958,13.231507],[80.126123,13.232489],[80.123334,13.233011],[80.122325,13.233836],[80.121446,13.233564],[80.120212,13.233867]]]}},{"type":"Feature","properties":{"siteId":"S-W178531103","district":"Tiruchirappalli","areaSqM":702803},"geometry":{"type":"Polygon","coordinates":[[[78.944049,10.994792],[78.943777,10.983508],[78.945575,10.980727],[78.94917,10.981636],[78.948952,10.987038],[78.946828,10.993669],[78.944213,10.995434],[78.944049,10.994792]]]}},{"type":"Feature","properties":{"siteId":"S-W178531106","district":"Tiruchirappalli","areaSqM":585759},"geometry":{"type":"Polygon","coordinates":[[[78.926643,10.956186],[78.927866,10.955961],[78.930521,10.956646],[78.933575,10.956653],[78.935066,10.957671],[78.936052,10.958528],[78.938339,10.959012],[78.938579,10.959758],[78.93863,10.96074],[78.939519,10.961129],[78.940681,10.961303],[78.941205,10.962062],[78.940821,10.962452],[78.939977,10.964109],[78.937827,10.964193],[78.936237,10.963322],[78.935354,10.962381],[78.934107,10.961805],[78.934388,10.960659],[78.930458,10.960107],[78.930063,10.959098],[78.929322,10.958812],[78.928484,10.957979],[78.927473,10.957291],[78.926842,10.956678],[78.926643,10.956186]]]}},{"type":"Feature","properties":{"siteId":"S-W206074310","district":"Tirunelveli","areaSqM":2803051},"geometry":{"type":"Polygon","coordinates":[[[77.734132,8.829097],[77.734966,8.826979],[77.741489,8.825537],[77.740803,8.820957],[77.733336,8.821805],[77.733207,8.818861],[77.731635,8.808717],[77.73041,8.803303],[77.721439,8.800927],[77.718226,8.801155],[77.718388,8.805884],[77.724722,8.810568],[77.728884,8.817948],[77.730525,8.825304],[77.730109,8.832889],[77.731982,8.833232],[77.734132,8.829097]]]}},{"type":"Feature","properties":{"siteId":"S-W206074313","district":"Tirunelveli","areaSqM":6337599},"geometry":{"type":"Polygon","coordinates":[[[77.653688,8.793484],[77.650529,8.7897],[77.651965,8.788329],[77.659096,8.789227],[77.664074,8.791497],[77.665756,8.791982],[77.668172,8.788476],[77.673023,8.789416],[77.681255,8.790031],[77.686568,8.791829],[77.690588,8.797315],[77.700447,8.799018],[77.701117,8.805261],[77.696199,8.806144],[77.688049,8.805738],[77.682835,8.803416],[77.673073,8.80429],[77.664509,8.800807],[77.655794,8.796795],[77.653688,8.793484]]]}},{"type":"Feature","properties":{"siteId":"S-W1539560683","district":"Tirupathur","areaSqM":509351},"geometry":{"type":"Polygon","coordinates":[[[78.691206,12.723008],[78.692386,12.72126],[78.69289,12.721166],[78.693802,12.72216],[78.695015,12.72283],[78.695326,12.723604],[78.69494,12.724483],[78.695262,12.72464],[78.696796,12.724452],[78.697557,12.725572],[78.697225,12.726744],[78.697043,12.72823],[78.697171,12.729726],[78.698287,12.73025],[78.699306,12.73025],[78.700068,12.731715],[78.697751,12.732573],[78.694918,12.733274],[78.69436,12.731233],[78.694865,12.730574],[78.694114,12.728136],[78.693169,12.726859],[78.692783,12.725865],[78.692762,12.724441],[78.691421,12.724253],[78.691206,12.723008]]]}},{"type":"Feature","properties":{"siteId":"S-W534352275","district":"Tirupathur","areaSqM":156807},"geometry":{"type":"Polygon","coordinates":[[[78.888005,12.857405],[78.88749,12.857437],[78.887512,12.85717],[78.887324,12.856757],[78.886905,12.856657],[78.886932,12.856401],[78.886476,12.856464],[78.886256,12.856181],[78.886036,12.855339],[78.885516,12.855036],[78.884572,12.854712],[78.884239,12.854215],[78.884593,12.853786],[78.884754,12.853409],[78.884953,12.853294],[78.885891,12.853383],[78.886256,12.853211],[78.886524,12.852892],[78.886755,12.852965],[78.886921,12.853273],[78.88712,12.853378],[78.887726,12.853472],[78.888906,12.853493],[78.88896,12.853603],[78.888767,12.85376],[78.888783,12.854471],[78.889502,12.854487],[78.88985,12.854612],[78.890349,12.854526],[78.890416,12.854921],[78.889877,12.85491],[78.889749,12.854968],[78.889732,12.855156],[78.88911,12.855172],[78.889073,12.855389],[78.888692,12.855394],[78.888689,12.85563],[78.887976,12.855692],[78.887994,12.856095],[78.888096,12.85616],[78.888509,12.856153],[78.888673,12.856723],[78.888863,12.856759],[78.888855,12.856916],[78.889124,12.856992],[78.889062,12.85689],[78.889303,12.856911],[78.889276,12.85712],[78.889089,12.857434],[78.888005,12.857405]]]}},{"type":"Feature","properties":{"siteId":"S-W984559658","district":"Tiruppur","areaSqM":329507},"geometry":{"type":"Polygon","coordinates":[[[77.561438,10.651857],[77.561867,10.654788],[77.563326,10.654661],[77.564378,10.656369],[77.565472,10.656939],[77.567339,10.655969],[77.565858,10.653164],[77.564313,10.650697],[77.561932,10.647217],[77.560473,10.648082],[77.560859,10.648989],[77.562125,10.649727],[77.561889,10.651941],[77.561438,10.651857]]]}},{"type":"Feature","properties":{"siteId":"S-W985084122","district":"Tiruppur","areaSqM":334155},"geometry":{"type":"Polygon","coordinates":[[[77.582839,11.07077],[77.581596,11.070703],[77.581655,11.06997],[77.581871,11.070049],[77.581736,11.068428],[77.582195,11.068344],[77.582605,11.069382],[77.583163,11.069365],[77.583329,11.069197],[77.583987,11.069192],[77.583964,11.068446],[77.584135,11.068344],[77.584392,11.067615],[77.584572,11.066347],[77.585157,11.066435],[77.585752,11.06663],[77.586778,11.066674],[77.586742,11.066457],[77.588552,11.066121],[77.589448,11.067412],[77.589921,11.068481],[77.588944,11.068516],[77.588975,11.069572],[77.589543,11.069594],[77.589795,11.070783],[77.589759,11.070955],[77.588701,11.070805],[77.588705,11.071388],[77.586706,11.071216],[77.586715,11.070076],[77.58626,11.070085],[77.586107,11.071159],[77.585671,11.071083],[77.585599,11.070748],[77.58518,11.070752],[77.58455,11.070633],[77.58441,11.070933],[77.582839,11.07077]]]}},{"type":"Feature","properties":{"siteId":"S-W535231949","district":"Tiruvannamalai","areaSqM":27249},"geometry":{"type":"Polygon","coordinates":[[[79.180843,12.704363],[79.180709,12.703562],[79.181348,12.703431],[79.181825,12.703232],[79.182045,12.70295],[79.182313,12.702814],[79.182635,12.702803],[79.182866,12.702547],[79.183252,12.702348],[79.183493,12.702432],[79.183611,12.702714],[79.183552,12.703049],[79.18322,12.703248],[79.183155,12.703656],[79.182699,12.703578],[79.182356,12.703703],[79.18242,12.704101],[79.182227,12.704122],[79.18205,12.703599],[79.18175,12.703515],[79.181278,12.70362],[79.181455,12.704405],[79.181026,12.704483],[79.180843,12.704363]]]}},{"type":"Feature","properties":{"siteId":"S-W535232077","district":"Tiruvannamalai","areaSqM":34110},"geometry":{"type":"Polygon","coordinates":[[[79.222568,12.698685],[79.222203,12.698046],[79.221956,12.697816],[79.221951,12.697513],[79.222595,12.697062],[79.223228,12.696905],[79.223861,12.697261],[79.223968,12.698083],[79.224467,12.698172],[79.224397,12.698481],[79.223517,12.698502],[79.222568,12.698685]]]}},{"type":"Feature","properties":{"siteId":"S-W1032774973","district":"Thoothukudi","areaSqM":3247275},"geometry":{"type":"Polygon","coordinates":[[[77.911906,8.656548],[77.911327,8.657078],[77.909626,8.659672],[77.908347,8.662623],[77.90745,8.664926],[77.906443,8.664974],[77.906069,8.663365],[77.905409,8.66343],[77.904651,8.66255],[77.904879,8.661671],[77.902915,8.661872],[77.902529,8.66446],[77.905877,8.665229],[77.905555,8.666038],[77.906531,8.666612],[77.906864,8.670623],[77.91167,8.669573],[77.912121,8.671811],[77.913044,8.675321],[77.923279,8.673348],[77.927012,8.672415],[77.928984,8.673189],[77.930869,8.675236],[77.930521,8.677548],[77.932355,8.677633],[77.932352,8.673841],[77.934151,8.671703],[77.936269,8.671033],[77.938214,8.66948],[77.938357,8.667842],[77.935724,8.669318],[77.934694,8.667218],[77.934083,8.669785],[77.932532,8.669711],[77.92901,8.67152],[77.929053,8.67274],[77.928066,8.672607],[77.9271,8.669571],[77.927669,8.66939],[77.92798,8.669548],[77.928151,8.668997],[77.927786,8.666793],[77.928633,8.666454],[77.928665,8.66446],[77.928493,8.662679],[77.927716,8.662333],[77.927927,8.661965],[77.927597,8.661379],[77.926495,8.661218],[77.926094,8.661476],[77.925818,8.661998],[77.925789,8.662445],[77.92536,8.662594],[77.920564,8.660918],[77.919357,8.663739],[77.914331,8.664482],[77.911123,8.66427],[77.909583,8.66427],[77.910894,8.662657],[77.911131,8.661639],[77.912121,8.661385],[77.912357,8.658478],[77.911906,8.656548]]]}},{"type":"Feature","properties":{"siteId":"S-W193315729","district":"Thoothukudi","areaSqM":3894236},"geometry":{"type":"Polygon","coordinates":[[[78.159929,9.296883],[78.165092,9.296314],[78.165573,9.29739],[78.175226,9.295301],[78.184269,9.292358],[78.184814,9.29489],[78.171313,9.29951],[78.164354,9.301029],[78.164322,9.303213],[78.159576,9.303846],[78.159512,9.309004],[78.160057,9.313751],[78.153643,9.314447],[78.153483,9.322612],[78.147775,9.324574],[78.147871,9.328972],[78.144712,9.329725],[78.144696,9.332368],[78.138748,9.334076],[78.137898,9.332304],[78.139197,9.331466],[78.139261,9.330358],[78.140736,9.329678],[78.14266,9.325928],[78.142451,9.324203],[78.144055,9.322953],[78.143895,9.321687],[78.145979,9.320232],[78.145979,9.319124],[78.147037,9.318191],[78.146941,9.315453],[78.148801,9.315074],[78.14925,9.311909],[78.150918,9.311023],[78.151928,9.306529],[78.153339,9.306165],[78.154028,9.303665],[78.156305,9.303032],[78.156979,9.300374],[78.159063,9.299678],[78.159929,9.296883]]]}},{"type":"Feature","properties":{"siteId":"S-W1167672530","district":"Vellore","areaSqM":143590},"geometry":{"type":"Polygon","coordinates":[[[79.126616,12.847871],[79.126197,12.847881],[79.126369,12.849027],[79.125822,12.849011],[79.125752,12.848676],[79.125259,12.84875],[79.125205,12.849021],[79.12462,12.848964],[79.123832,12.850758],[79.123569,12.851814],[79.125339,12.851213],[79.125532,12.851616],[79.126063,12.851542],[79.126374,12.851385],[79.126514,12.851558],[79.126922,12.851574],[79.127185,12.851396],[79.129007,12.851099],[79.129192,12.851178],[79.129507,12.851176],[79.129547,12.851525],[79.129813,12.851456],[79.129661,12.85071],[79.129052,12.850821],[79.128884,12.849596],[79.128059,12.849665],[79.127207,12.849624],[79.127041,12.848804],[79.126932,12.848788],[79.126764,12.848058],[79.126616,12.847871]]]}},{"type":"Feature","properties":{"siteId":"S-W138986550","district":"Vellore","areaSqM":612141},"geometry":{"type":"Polygon","coordinates":[[[79.103851,12.863653],[79.110936,12.862268],[79.112744,12.862858],[79.114241,12.862792],[79.115056,12.863963],[79.115696,12.865332],[79.115361,12.866492],[79.11292,12.86792],[79.111669,12.869288],[79.108556,12.867176],[79.105993,12.866998],[79.10459,12.86557],[79.103851,12.863653]]]}},{"type":"Feature","properties":{"siteId":"S-W1026841609","district":"Villupuram","areaSqM":7149387},"geometry":{"type":"Polygon","coordinates":[[[79.646673,12.029541],[79.644914,12.031976],[79.642038,12.032164],[79.641223,12.033088],[79.642811,12.036173],[79.642468,12.039531],[79.64251,12.04272],[79.643669,12.044273],[79.64457,12.043937],[79.645343,12.038397],[79.647188,12.036802],[79.649591,12.038733],[79.649677,12.042385],[79.652767,12.045322],[79.654098,12.049016],[79.659333,12.049142],[79.661264,12.051744],[79.662294,12.058081],[79.666114,12.060264],[79.670491,12.061061],[79.671478,12.063915],[79.668131,12.066223],[79.663839,12.068699],[79.660749,12.068237],[79.658475,12.06744],[79.65826,12.06937],[79.657617,12.071721],[79.654655,12.07277],[79.652338,12.071343],[79.64766,12.064167],[79.645815,12.064376],[79.642854,12.066978],[79.64354,12.071301],[79.646158,12.071301],[79.646845,12.074616],[79.644442,12.07684],[79.645686,12.077512],[79.651051,12.076673],[79.655256,12.074448],[79.659076,12.074742],[79.664011,12.071469],[79.669719,12.067818],[79.674826,12.065216],[79.6771,12.063369],[79.677401,12.058711],[79.676714,12.056235],[79.67607,12.053381],[79.67238,12.053465],[79.669719,12.050527],[79.667702,12.047547],[79.665985,12.042636],[79.662981,12.038397],[79.658475,12.037516],[79.653711,12.035249],[79.651952,12.03164],[79.650707,12.029793],[79.650579,12.027233],[79.649162,12.026729],[79.647617,12.027442],[79.646673,12.029541]]]}},{"type":"Feature","properties":{"siteId":"S-W1026841613","district":"Villupuram","areaSqM":2814722},"geometry":{"type":"Polygon","coordinates":[[[79.744692,12.206482],[79.742761,12.208706],[79.742975,12.211809],[79.745121,12.213319],[79.748554,12.212816],[79.7504,12.214452],[79.751215,12.216675],[79.752545,12.216927],[79.753704,12.219737],[79.752975,12.221498],[79.754004,12.22347],[79.754992,12.224392],[79.759798,12.22477],[79.763103,12.223847],[79.767437,12.223176],[79.771557,12.22326],[79.774389,12.222379],[79.776406,12.219485],[79.777093,12.217094],[79.776063,12.215123],[79.774218,12.216465],[79.772415,12.219653],[79.769926,12.220282],[79.766922,12.21894],[79.764133,12.218353],[79.76203,12.219988],[79.759884,12.218898],[79.757524,12.216843],[79.756193,12.21311],[79.754863,12.21118],[79.756193,12.209125],[79.758382,12.20686],[79.75791,12.204889],[79.755721,12.204763],[79.754434,12.207657],[79.752116,12.208454],[79.750614,12.207783],[79.74937,12.205476],[79.746881,12.20535],[79.744692,12.206482]]]}},{"type":"Feature","properties":{"siteId":"S-W1151596289","district":"Virudhunagar","areaSqM":3243898},"geometry":{"type":"Polygon","coordinates":[[[78.179011,9.463286],[78.181243,9.463032],[78.182273,9.465741],[78.184891,9.465571],[78.184032,9.463074],[78.186564,9.46227],[78.191028,9.462143],[78.19386,9.465275],[78.196735,9.465698],[78.198538,9.467688],[78.199439,9.468281],[78.199868,9.471625],[78.199825,9.475096],[78.197808,9.47535],[78.196478,9.471117],[78.194933,9.471328],[78.195448,9.473868],[78.196006,9.477593],[78.19562,9.481403],[78.194718,9.486355],[78.190727,9.487244],[78.190041,9.482842],[78.192444,9.48208],[78.192658,9.478017],[78.190041,9.477255],[78.189998,9.475477],[78.18665,9.475646],[78.186092,9.478228],[78.183646,9.478228],[78.183303,9.474038],[78.181973,9.473741],[78.181629,9.470566],[78.178797,9.470228],[78.179011,9.463286]]]}},{"type":"Feature","properties":{"siteId":"S-W297525511","district":"Virudhunagar","areaSqM":6062857},"geometry":{"type":"Polygon","coordinates":[[[78.156292,9.369623],[78.157311,9.374426],[78.15609,9.389971],[78.171406,9.389272],[78.171406,9.38628],[78.175854,9.384585],[78.173529,9.371469],[78.167918,9.372217],[78.166553,9.363639],[78.179493,9.359848],[78.18015,9.363339],[78.186873,9.362093],[78.183537,9.354063],[78.169586,9.357006],[78.161448,9.361394],[78.162864,9.368626],[78.156292,9.369623]]]}}]}