{"type":"Feature","properties":{},"geometry":{"type":"MultiPolygon","coordinates":[[[[-180,-85],[180,-85],[180,85],[-180,85],[-180,-85]],[[76.2338,11.5707],[76.2646,11.591],[76.2649,11.594],[76.2743,11.5938],[76.279,11.6009],[76.2861,11.5903],[76.296,11.5902],[76.3024,11.5713],[76.3105,11.5775],[76.3159,11.5767],[76.3212,11.5863],[76.3359,11.5958],[76.3399,11.5932],[76.3404,11.5873],[76.3546,11.5894],[76.3671,11.5984],[76.378,11.602],[76.3783,11.6086],[76.3839,11.6121],[76.3833,11.6241],[76.3881,11.6297],[76.4066,11.6343],[76.4325,11.6314],[76.444,11.6473],[76.4364,11.6535],[76.4313,11.6665],[76.4582,11.6645],[76.4826,11.6862],[76.4816,11.6926],[76.4935,11.6931],[76.5111,11.7051],[76.5372,11.6909],[76.5505,11.6743],[76.5493,11.6651],[76.5544,11.6557],[76.5539,11.6458],[76.5614,11.6328],[76.5599,11.6226],[76.5696,11.6182],[76.5752,11.6193],[76.5767,11.6146],[76.5837,11.6139],[76.5922,11.6188],[76.5964,11.6164],[76.5976,11.6108],[76.6106,11.611],[76.6139,11.6077],[76.6304,11.6139],[76.6714,11.616],[76.6939,11.6132],[76.7027,11.616],[76.747,11.6139],[76.7569,11.6186],[76.7648,11.6142],[76.7915,11.6129],[76.7963,11.6085],[76.8092,11.6085],[76.8175,11.6048],[76.8228,11.6082],[76.8469,11.5946],[76.8564,11.5994],[76.8581,11.6141],[76.8505,11.6161],[76.8488,11.6187],[76.8521,11.6218],[76.8427,11.6272],[76.8451,11.6343],[76.8346,11.6396],[76.8379,11.6421],[76.8337,11.6491],[76.835,11.6555],[76.8418,11.6622],[76.8527,11.6925],[76.8637,11.7055],[76.8611,11.7073],[76.8626,11.7111],[76.8742,11.7242],[76.8883,11.7338],[76.888,11.7418],[76.8962,11.7599],[76.8966,11.7766],[76.908,11.7954],[76.9221,11.7919],[76.932,11.7929],[76.9423,11.7881],[76.9539,11.7922],[76.9611,11.7817],[76.9699,11.777],[76.9836,11.8018],[76.9821,11.8116],[76.9935,11.8093],[77.0129,11.8147],[77.014,11.8063],[77.0168,11.8108],[77.0298,11.8048],[77.0341,11.8001],[77.0326,11.796],[77.0387,11.794],[77.0354,11.7832],[77.0288,11.7748],[77.0351,11.7699],[77.0464,11.7877],[77.0629,11.7905],[77.0697,11.7822],[77.0564,11.7699],[77.0827,11.7399],[77.0802,11.7361],[77.105,11.7329],[77.1177,11.7212],[77.1173,11.7286],[77.1153,11.7283],[77.1175,11.7319],[77.1141,11.7346],[77.1113,11.7505],[77.1085,11.7527],[77.1124,11.757],[77.1107,11.7736],[77.138,11.7728],[77.147,11.782],[77.182,11.7864],[77.1892,11.7926],[77.2386,11.7948],[77.2496,11.8043],[77.2498,11.8131],[77.2879,11.8005],[77.2938,11.8091],[77.3351,11.7713],[77.3604,11.7796],[77.3648,11.7905],[77.3702,11.7868],[77.3944,11.7877],[77.4136,11.7748],[77.4222,11.7725],[77.4226,11.7618],[77.4272,11.761],[77.4338,11.7782],[77.4422,11.7834],[77.4405,11.7889],[77.4466,11.7904],[77.4498,11.7961],[77.454,11.8203],[77.4666,11.8472],[77.4614,11.8538],[77.463,11.859],[77.4599,11.8636],[77.4658,11.8743],[77.4604,11.8813],[77.4639,11.8941],[77.4616,11.9001],[77.4735,11.8993],[77.4772,11.8906],[77.4806,11.8935],[77.4862,11.8875],[77.483,11.8997],[77.4905,11.9086],[77.4886,11.9124],[77.4948,11.944],[77.5004,11.9401],[77.5049,11.9412],[77.5379,11.9325],[77.5425,11.9383],[77.5581,11.9417],[77.5753,11.9366],[77.5935,11.9403],[77.6034,11.9378],[77.6069,11.9421],[77.624,11.9474],[77.6394,11.9481],[77.652,11.9549],[77.6573,11.9499],[77.669,11.9492],[77.6756,11.9521],[77.6747,11.966],[77.6963,12.0158],[77.7266,12.0612],[77.7557,12.0798],[77.7677,12.1067],[77.7759,12.1114],[77.7755,12.1185],[77.7514,12.1363],[77.7468,12.1446],[77.7452,12.1594],[77.7354,12.1696],[77.7333,12.1781],[77.7277,12.1816],[77.7023,12.1842],[77.6652,12.1983],[77.64,12.1965],[77.6298,12.2023],[77.6209,12.1999],[77.6107,12.2062],[77.5967,12.1993],[77.5804,12.1982],[77.5738,12.2009],[77.5658,12.1964],[77.5462,12.2047],[77.5358,12.1987],[77.5281,12.199],[77.5187,12.1945],[77.4927,12.1974],[77.4864,12.2039],[77.472,12.208],[77.4826,12.2303],[77.4785,12.2401],[77.4711,12.2436],[77.472,12.2499],[77.4782,12.2593],[77.479,12.2713],[77.4876,12.2806],[77.4933,12.2789],[77.5,12.2826],[77.5084,12.2761],[77.5142,12.2754],[77.5272,12.2788],[77.5328,12.2915],[77.5513,12.2913],[77.5579,12.3058],[77.566,12.3063],[77.5786,12.3357],[77.5915,12.3402],[77.6008,12.3585],[77.613,12.3612],[77.6168,12.3683],[77.6233,12.4123],[77.6296,12.4184],[77.6261,12.4308],[77.6291,12.4464],[77.6272,12.4585],[77.6307,12.4703],[77.6331,12.4705],[77.6346,12.4877],[77.6261,12.4964],[77.6074,12.4752],[77.5957,12.4749],[77.5837,12.4789],[77.6024,12.4972],[77.615,12.5042],[77.6163,12.5092],[77.6124,12.515],[77.5872,12.5148],[77.5864,12.5458],[77.5803,12.5516],[77.5793,12.5731],[77.5838,12.5759],[77.5893,12.5927],[77.5914,12.5921],[77.591,12.6153],[77.5941,12.6211],[77.6062,12.629],[77.6047,12.6376],[77.5961,12.6503],[77.5989,12.6672],[77.6379,12.6758],[77.6599,12.6839],[77.6764,12.6795],[77.6751,12.6731],[77.6786,12.6604],[77.7042,12.6615],[77.711,12.6672],[77.7116,12.6832],[77.7227,12.6797],[77.7246,12.6712],[77.7399,12.673],[77.741,12.6858],[77.7352,12.6941],[77.7399,12.6999],[77.7599,12.697],[77.7639,12.6997],[77.7657,12.7138],[77.7695,12.7126],[77.7744,12.7243],[77.7612,12.7274],[77.7624,12.7354],[77.7683,12.7401],[77.7835,12.7413],[77.7927,12.7479],[77.7944,12.7577],[77.7788,12.7681],[77.7985,12.7952],[77.8066,12.7941],[77.8085,12.7968],[77.8034,12.8049],[77.7997,12.8053],[77.8021,12.8171],[77.8099,12.8156],[77.8099,12.8316],[77.7959,12.8346],[77.7924,12.8428],[77.7967,12.8448],[77.7991,12.8516],[77.8079,12.8477],[77.8155,12.8558],[77.8231,12.8559],[77.8324,12.8621],[77.8321,12.8676],[77.836,12.8704],[77.8474,12.8694],[77.8509,12.8662],[77.8575,12.8695],[77.8759,12.8669],[77.8903,12.8697],[77.8949,12.8786],[77.9084,12.8789],[77.9087,12.8849],[77.9219,12.8848],[77.9251,12.8901],[77.9293,12.891],[77.936,12.8873],[77.9361,12.8837],[77.9346,12.8807],[77.9271,12.8816],[77.9277,12.875],[77.9416,12.8728],[77.9413,12.8688],[77.9228,12.8556],[77.9242,12.8512],[77.9172,12.8389],[77.9185,12.8306],[77.9205,12.8282],[77.9267,12.8302],[77.9348,12.823],[77.9407,12.8234],[77.9466,12.8388],[77.9406,12.8453],[77.94,12.8532],[77.9436,12.8579],[77.9523,12.8572],[77.9528,12.8502],[77.9653,12.8482],[77.9626,12.8374],[77.9643,12.8329],[77.9804,12.8351],[77.9793,12.8271],[77.9898,12.8216],[77.9885,12.8082],[77.9952,12.8059],[78.0056,12.8087],[78.0097,12.8058],[78.0151,12.8134],[78.0128,12.8189],[78.0037,12.8248],[78.0106,12.831],[78.0183,12.8311],[78.0191,12.844],[78.0243,12.8418],[78.029,12.8452],[78.0297,12.849],[78.024,12.8526],[78.0238,12.8566],[78.0306,12.8581],[78.0307,12.8525],[78.0504,12.8488],[78.0535,12.8538],[78.059,12.8512],[78.0602,12.8439],[78.077,12.8392],[78.0738,12.8306],[78.0862,12.832],[78.0901,12.8174],[78.1093,12.8045],[78.125,12.7982],[78.1259,12.7917],[78.1342,12.782],[78.1451,12.781],[78.1676,12.7701],[78.1774,12.776],[78.1842,12.7763],[78.1889,12.772],[78.1951,12.7739],[78.2128,12.7651],[78.2239,12.7659],[78.2309,12.7607],[78.2361,12.7381],[78.241,12.73],[78.2311,12.7126],[78.2271,12.7149],[78.218,12.7089],[78.2134,12.711],[78.2121,12.7077],[78.2057,12.7065],[78.2099,12.7006],[78.1993,12.6955],[78.1996,12.6931],[78.2098,12.6905],[78.2123,12.6885],[78.2106,12.6861],[78.2377,12.6858],[78.2393,12.7011],[78.2445,12.7064],[78.2711,12.7051],[78.2864,12.6891],[78.301,12.6659],[78.3183,12.662],[78.331,12.6531],[78.3322,12.6493],[78.3436,12.6488],[78.3556,12.6365],[78.3714,12.6272],[78.3794,12.6251],[78.4126,12.6269],[78.427,12.6353],[78.4348,12.6296],[78.4584,12.6297],[78.4649,12.6241],[78.4717,12.6321],[78.4705,12.6446],[78.4747,12.6477],[78.4705,12.6506],[78.4679,12.6759],[78.4845,12.6717],[78.4998,12.6762],[78.5038,12.682],[78.5033,12.69],[78.5074,12.6915],[78.5029,12.692],[78.504,12.6987],[78.4965,12.7033],[78.5019,12.7045],[78.503,12.7168],[78.5118,12.7077],[78.52,12.7121],[78.5175,12.7147],[78.5202,12.7187],[78.5092,12.7243],[78.5059,12.7226],[78.5016,12.7312],[78.4969,12.7314],[78.4891,12.742],[78.4931,12.7472],[78.5052,12.743],[78.5071,12.7372],[78.5138,12.7345],[78.5116,12.7268],[78.5167,12.7244],[78.5209,12.7362],[78.5227,12.7193],[78.527,12.7215],[78.525,12.7155],[78.5332,12.714],[78.5375,12.717],[78.5369,12.7134],[78.5443,12.711],[78.535,12.7074],[78.5327,12.7116],[78.5296,12.7103],[78.5349,12.6912],[78.5409,12.6907],[78.5558,12.7002],[78.5549,12.7076],[78.5616,12.7101],[78.5544,12.7193],[78.5638,12.7377],[78.5553,12.7393],[78.5632,12.7514],[78.5583,12.75],[78.5556,12.7558],[78.5615,12.7615],[78.5656,12.7594],[78.5684,12.767],[78.5765,12.7674],[78.576,12.772],[78.5925,12.7827],[78.593,12.7983],[78.6011,12.8037],[78.6004,12.8185],[78.6077,12.8219],[78.6015,12.8509],[78.6131,12.868],[78.6167,12.8886],[78.6228,12.9043],[78.6268,12.9074],[78.6334,12.9318],[78.6522,12.9291],[78.657,12.9321],[78.6461,12.9459],[78.638,12.9648],[78.6471,12.9663],[78.6209,12.9913],[78.63,12.9945],[78.6555,13.0153],[78.6562,13.0312],[78.7052,13.0153],[78.7145,13.0687],[78.7403,13.064],[78.7518,13.055],[78.7943,13.0666],[78.7976,13.0749],[78.8131,13.0892],[78.842,13.0787],[78.8611,13.0837],[78.8709,13.0819],[78.8698,13.0896],[78.8751,13.0969],[78.8916,13.0971],[78.8957,13.0952],[78.8889,13.0734],[78.8913,13.0689],[78.8916,13.0331],[78.9291,13.0365],[78.9357,13.0348],[78.9371,13.0305],[78.9408,13.0364],[78.9337,13.0393],[78.9291,13.0458],[78.9217,13.047],[78.9175,13.0437],[78.9036,13.0477],[78.9126,13.066],[78.9217,13.0661],[78.9239,13.0808],[78.9415,13.0786],[78.9492,13.084],[78.9495,13.0802],[78.9554,13.0759],[78.9621,13.0788],[78.9688,13.0779],[78.9703,13.0748],[78.9723,13.0838],[78.995,13.0866],[79.0039,13.0846],[79.0095,13.0773],[79.0369,13.0706],[79.0387,13.0612],[79.0634,13.0531],[79.0628,13.0407],[79.0809,13.0258],[79.0868,13.028],[79.0983,13.0261],[79.1074,13.0383],[79.1145,13.0393],[79.1373,13.0348],[79.1483,13.0247],[79.1631,13.0203],[79.1822,13.0319],[79.1848,13.0299],[79.193,13.0467],[79.1804,13.0489],[79.1796,13.0545],[79.1921,13.0562],[79.1913,13.0586],[79.1847,13.0568],[79.1783,13.0592],[79.18,13.0643],[79.1873,13.0607],[79.1881,13.0657],[79.1921,13.0675],[79.1908,13.0734],[79.184,13.0728],[79.1853,13.0797],[79.1832,13.082],[79.1813,13.0799],[79.1806,13.0843],[79.1876,13.0835],[79.1907,13.0888],[79.1931,13.0823],[79.1983,13.0814],[79.2008,13.0889],[79.2344,13.1053],[79.2342,13.1147],[79.2384,13.1186],[79.2303,13.1264],[79.2328,13.1394],[79.2219,13.1463],[79.21,13.1485],[79.2147,13.157],[79.2273,13.1556],[79.2256,13.1589],[79.2349,13.1709],[79.2427,13.171],[79.2411,13.1596],[79.2442,13.1528],[79.2421,13.1497],[79.2449,13.1489],[79.2402,13.1444],[79.2452,13.1383],[79.2539,13.1458],[79.2522,13.1578],[79.2574,13.1608],[79.2603,13.1596],[79.2621,13.1491],[79.2745,13.1557],[79.2803,13.1529],[79.284,13.1228],[79.3124,13.1262],[79.2992,13.1187],[79.3015,13.1137],[79.2943,13.1096],[79.3072,13.1056],[79.3099,13.112],[79.3189,13.1135],[79.3119,13.1166],[79.3242,13.1186],[79.3186,13.1235],[79.3267,13.1261],[79.329,13.1306],[79.3396,13.1305],[79.3411,13.1369],[79.3446,13.1368],[79.3452,13.1214],[79.3536,13.1206],[79.3605,13.1236],[79.3655,13.134],[79.3611,13.1385],[79.3561,13.1646],[79.38,13.163],[79.3792,13.1715],[79.3695,13.1729],[79.3727,13.1789],[79.3877,13.1776],[79.3856,13.1831],[79.3781,13.1847],[79.374,13.1893],[79.3874,13.1891],[79.3921,13.1925],[79.399,13.1878],[79.4008,13.1917],[79.4092,13.1941],[79.4101,13.1905],[79.4384,13.1882],[79.4324,13.197],[79.4356,13.1972],[79.4395,13.2059],[79.4438,13.2078],[79.4362,13.2128],[79.4373,13.2196],[79.4485,13.2157],[79.4538,13.217],[79.4531,13.2384],[79.4415,13.238],[79.44,13.2306],[79.431,13.2297],[79.4398,13.2359],[79.4315,13.2361],[79.4381,13.2401],[79.4376,13.2429],[79.4185,13.243],[79.4196,13.2457],[79.417,13.2459],[79.4226,13.2513],[79.4168,13.2517],[79.4161,13.2604],[79.4084,13.2653],[79.4139,13.2664],[79.4176,13.2718],[79.4337,13.275],[79.4347,13.2891],[79.4463,13.2916],[79.4454,13.3013],[79.4305,13.3003],[79.42,13.2896],[79.4157,13.2996],[79.4053,13.2976],[79.3941,13.3],[79.3898,13.2975],[79.3886,13.3098],[79.3819,13.3075],[79.3878,13.3181],[79.402,13.3174],[79.3983,13.3302],[79.4024,13.3303],[79.4053,13.3351],[79.4147,13.3301],[79.421,13.3363],[79.4316,13.3367],[79.4354,13.3517],[79.4562,13.3386],[79.464,13.3418],[79.4654,13.3388],[79.4805,13.34],[79.4952,13.3452],[79.5103,13.3346],[79.5111,13.342],[79.5259,13.3444],[79.5373,13.3387],[79.5418,13.3273],[79.5393,13.3219],[79.5441,13.3168],[79.5348,13.3014],[79.5371,13.2945],[79.5412,13.2925],[79.5351,13.2851],[79.5346,13.2754],[79.54,13.2724],[79.5584,13.2727],[79.5735,13.2594],[79.5792,13.2578],[79.5913,13.2615],[79.596,13.2849],[79.6087,13.2875],[79.6061,13.2796],[79.6141,13.2827],[79.6316,13.2697],[79.634,13.2716],[79.6315,13.2772],[79.6343,13.2775],[79.6332,13.2824],[79.638,13.2843],[79.6384,13.2875],[79.6412,13.2756],[79.6425,13.2902],[79.6518,13.2919],[79.6578,13.2839],[79.6638,13.2898],[79.6666,13.286],[79.6654,13.2787],[79.6742,13.2818],[79.6781,13.2974],[79.6826,13.2959],[79.6812,13.288],[79.6939,13.2798],[79.6936,13.2735],[79.6888,13.2709],[79.6908,13.2677],[79.6942,13.2705],[79.6957,13.2673],[79.6911,13.261],[79.6877,13.2667],[79.6783,13.2617],[79.6842,13.2445],[79.6959,13.2386],[79.693,13.2433],[79.6963,13.2433],[79.6982,13.251],[79.7009,13.2531],[79.7091,13.2511],[79.714,13.2358],[79.7061,13.2342],[79.7022,13.2242],[79.7164,13.2164],[79.7216,13.2235],[79.7314,13.2225],[79.7302,13.2326],[79.7326,13.2369],[79.7373,13.2366],[79.739,13.2295],[79.751,13.2165],[79.75,13.208],[79.755,13.2065],[79.7598,13.2075],[79.7642,13.2191],[79.7739,13.2192],[79.7729,13.2155],[79.7754,13.2153],[79.7779,13.2236],[79.7847,13.2279],[79.7931,13.2293],[79.7945,13.2263],[79.7948,13.2419],[79.7816,13.2516],[79.7612,13.2575],[79.748,13.271],[79.7417,13.271],[79.735,13.276],[79.7306,13.283],[79.7337,13.2888],[79.7392,13.2914],[79.7442,13.2886],[79.7567,13.2953],[79.7602,13.3016],[79.7608,13.3185],[79.7752,13.306],[79.7802,13.3062],[79.7856,13.2967],[79.7917,13.2935],[79.8016,13.3005],[79.8036,13.311],[79.8089,13.3173],[79.8292,13.3175],[79.8361,13.3142],[79.8532,13.316],[79.8535,13.3207],[79.8628,13.3169],[79.868,13.3311],[79.8829,13.3233],[79.8835,13.3329],[79.9038,13.3405],[79.9148,13.3482],[79.9159,13.3599],[79.9253,13.3584],[79.9313,13.3515],[79.938,13.3555],[79.9422,13.3636],[79.9456,13.3638],[79.9494,13.3755],[79.945,13.3818],[79.9482,13.3833],[79.9539,13.3771],[79.958,13.3792],[79.9627,13.3914],[79.9614,13.3956],[79.9443,13.3969],[79.9412,13.4006],[79.9457,13.4078],[79.9345,13.4165],[79.9418,13.4167],[79.9396,13.4251],[79.9525,13.4259],[79.9566,13.4222],[79.9733,13.4297],[79.9724,13.4691],[79.9824,13.4705],[79.984,13.4796],[80.0078,13.4783],[80.0159,13.498],[80.03,13.4982],[80.0466,13.4937],[80.048,13.5126],[80.0355,13.5183],[80.0272,13.5137],[80.0195,13.5193],[80.0176,13.5296],[80.0005,13.5257],[79.9985,13.5375],[79.9997,13.5423],[80.0042,13.5449],[80.0187,13.5469],[80.0239,13.5461],[80.0284,13.5388],[80.0569,13.5367],[80.0627,13.5454],[80.0684,13.5446],[80.0812,13.5498],[80.0886,13.535],[80.0771,13.5264],[80.0782,13.4888],[80.103,13.487],[80.1009,13.4899],[80.1051,13.4934],[80.1082,13.4889],[80.1115,13.4933],[80.1127,13.506],[80.1317,13.5015],[80.1392,13.5043],[80.1455,13.4995],[80.1452,13.4914],[80.163,13.4882],[80.1865,13.4907],[80.2099,13.4863],[80.2106,13.4905],[80.2146,13.4903],[80.2139,13.4861],[80.2259,13.4851],[80.2418,13.4707],[80.264,13.5627],[80.2688,13.5653],[80.303,13.475],[80.3261,13.4449],[80.3295,13.4038],[80.345,13.3305],[80.3447,13.2762],[80.3382,13.262],[80.3349,13.2379],[80.3318,13.2362],[80.3337,13.2343],[80.3134,13.1679],[80.2984,13.1375],[80.2981,13.1347],[80.3063,13.1304],[80.3008,13.1213],[80.3054,13.1099],[80.3038,13.1057],[80.3014,13.1121],[80.2982,13.1018],[80.3017,13.0987],[80.2969,13.0993],[80.2949,13.0929],[80.3007,13.0912],[80.3038,13.1026],[80.3111,13.1081],[80.2864,13.061],[80.2788,13.017],[80.2606,12.9439],[80.2479,12.8307],[80.2487,12.803],[80.2504,12.7937],[80.2548,12.7888],[80.2547,12.7808],[80.2009,12.6321],[80.1986,12.6211],[80.2007,12.6172],[80.1918,12.6014],[80.1854,12.5744],[80.1663,12.5297],[80.1613,12.5122],[80.1564,12.4601],[80.1502,12.4365],[80.1377,12.4106],[80.1276,12.3976],[80.046,12.3125],[79.9017,12.0915],[79.8738,12.0426],[79.8498,12.0518],[79.8434,12.0345],[79.8405,12.0133],[79.8571,12.0068],[79.8406,11.9558],[79.8288,11.9584],[79.8223,11.9658],[79.8184,11.9779],[79.8125,11.9779],[79.8064,11.9681],[79.805,11.9533],[79.7847,11.9599],[79.7834,11.9563],[79.7767,11.9537],[79.7715,11.9439],[79.7599,11.9436],[79.7621,11.9286],[79.755,11.9261],[79.7562,11.9204],[79.7502,11.9199],[79.7445,11.965],[79.7245,11.9713],[79.7234,11.9771],[79.7264,11.9858],[79.7419,11.9777],[79.7481,11.9848],[79.7604,11.9892],[79.7623,12.0027],[79.7476,12.0078],[79.7426,12.0012],[79.7377,12.0009],[79.7334,11.9933],[79.7206,11.9927],[79.7158,11.9848],[79.7124,11.9865],[79.7093,11.9757],[79.716,11.971],[79.715,11.9676],[79.7034,11.9671],[79.698,11.9604],[79.6957,11.9639],[79.6916,11.9514],[79.6972,11.9418],[79.7041,11.9402],[79.7111,11.9331],[79.7079,11.9423],[79.7096,11.9498],[79.7208,11.9449],[79.7175,11.929],[79.7406,11.9055],[79.7313,11.9032],[79.7289,11.8903],[79.7228,11.8918],[79.7236,11.8887],[79.7168,11.8928],[79.7111,11.8908],[79.7053,11.8939],[79.709,11.9033],[79.7066,11.9135],[79.7179,11.9134],[79.7186,11.919],[79.6962,11.9192],[79.6979,11.9047],[79.6954,11.8948],[79.6871,11.8945],[79.6868,11.8889],[79.6826,11.8888],[79.6827,11.8919],[79.6738,11.8916],[79.674,11.8807],[79.685,11.881],[79.6857,11.8862],[79.71,11.8892],[79.7082,11.8691],[79.7125,11.8666],[79.7188,11.8533],[79.7211,11.8625],[79.7325,11.8626],[79.7338,11.8656],[79.7419,11.8629],[79.7431,11.8485],[79.7518,11.8484],[79.7538,11.866],[79.7586,11.8685],[79.7574,11.8761],[79.7639,11.877],[79.77,11.8747],[79.7708,11.8614],[79.7621,11.8484],[79.7693,11.838],[79.7735,11.8366],[79.7763,11.8391],[79.7822,11.8559],[79.8006,11.8553],[79.8081,11.8453],[79.807,11.8336],[79.8022,11.8339],[79.7982,11.8387],[79.7981,11.8347],[79.7938,11.8336],[79.8006,11.8307],[79.7975,11.8246],[79.7957,11.8285],[79.7783,11.8318],[79.773,11.8227],[79.7701,11.8226],[79.7649,11.8242],[79.7644,11.8338],[79.7367,11.8443],[79.7381,11.837],[79.7294,11.837],[79.7323,11.8334],[79.7357,11.8094],[79.7245,11.8105],[79.7228,11.7965],[79.7138,11.7963],[79.7123,11.7916],[79.7261,11.7826],[79.755,11.7753],[79.7619,11.7908],[79.7658,11.7919],[79.7706,11.7896],[79.7719,11.7822],[79.7804,11.7812],[79.7844,11.7874],[79.7958,11.7855],[79.7872,11.7342],[79.7765,11.6988],[79.761,11.6238],[79.7572,11.5575],[79.7686,11.5148],[79.7784,11.5069],[79.7785,11.5],[79.8074,11.4441],[79.8222,11.3821],[79.8323,11.3606],[79.8365,11.3583],[79.8313,11.3589],[79.8321,11.3566],[79.8431,11.3512],[79.8346,11.3218],[79.8565,11.1714],[79.8582,11.1192],[79.8544,10.9833],[79.8506,10.9874],[79.8512,10.9943],[79.8394,10.9959],[79.8402,11.0021],[79.8319,11.0029],[79.8279,10.9982],[79.8229,11.0008],[79.8206,10.9982],[79.8152,11.0038],[79.8131,10.9992],[79.8042,10.9977],[79.8062,10.993],[79.8038,10.9922],[79.804,10.9871],[79.8018,10.9881],[79.7977,10.9826],[79.7863,10.9897],[79.789,10.992],[79.7865,10.9973],[79.7835,10.9948],[79.7798,10.9987],[79.7666,10.9974],[79.7621,11.0014],[79.76,10.9991],[79.7563,11.0038],[79.7471,11.003],[79.7473,10.9884],[79.7525,10.9881],[79.7528,10.9829],[79.7585,10.9835],[79.7584,10.9799],[79.7528,10.9769],[79.7547,10.9719],[79.7594,10.9722],[79.7639,10.9598],[79.745,10.9566],[79.7462,10.9651],[79.7391,10.9646],[79.7303,10.9705],[79.7192,10.9685],[79.7187,10.956],[79.7208,10.9566],[79.7212,10.9514],[79.7296,10.9507],[79.7324,10.9512],[79.7332,10.9568],[79.7365,10.9572],[79.7369,10.949],[79.724,10.9419],[79.7271,10.9378],[79.723,10.935],[79.7291,10.9364],[79.7292,10.934],[79.7255,10.9341],[79.7248,10.929],[79.7355,10.9275],[79.7352,10.9247],[79.7391,10.9263],[79.7384,10.9233],[79.7426,10.9246],[79.7417,10.918],[79.7453,10.9193],[79.743,10.9147],[79.7589,10.9167],[79.7629,10.9137],[79.7575,10.9079],[79.7594,10.9019],[79.7569,10.8965],[79.7613,10.9018],[79.7635,10.8998],[79.7558,10.8947],[79.7562,10.8918],[79.7679,10.8925],[79.7651,10.8963],[79.7769,10.8966],[79.7773,10.909],[79.782,10.9063],[79.7892,10.9085],[79.7953,10.9028],[79.7913,10.9049],[79.7938,10.8988],[79.7825,10.8954],[79.7836,10.8885],[79.7899,10.8904],[79.7903,10.8949],[79.7952,10.8909],[79.7946,10.8876],[79.8043,10.8911],[79.807,10.8876],[79.8285,10.8838],[79.8246,10.8805],[79.8112,10.8804],[79.811,10.8756],[79.8223,10.8743],[79.8248,10.8649],[79.8116,10.8597],[79.8074,10.8655],[79.8079,10.8557],[79.821,10.8456],[79.828,10.8497],[79.831,10.8274],[79.8527,10.8269],[79.8506,10.7637],[79.8534,10.6267],[79.8687,10.3756],[79.8822,10.3232],[79.881,10.3043],[79.873,10.2911],[79.8603,10.2825],[79.8236,10.2755],[79.7685,10.2719],[79.706,10.2776],[79.6537,10.288],[79.6363,10.2946],[79.5326,10.3067],[79.5166,10.3134],[79.3891,10.3174],[79.3769,10.3131],[79.3666,10.294],[79.3317,10.2858],[79.309,10.2681],[79.2968,10.2624],[79.2689,10.2343],[79.2669,10.229],[79.2772,10.2234],[79.2786,10.2155],[79.2648,10.1973],[79.2441,10.186],[79.2381,10.1698],[79.2387,10.1563],[79.2348,10.1571],[79.2368,10.1543],[79.2282,10.1474],[79.2276,10.1338],[79.2356,10.128],[79.2306,10.1193],[79.2271,10.1192],[79.2302,10.1184],[79.2272,10.1113],[79.2292,10.1043],[79.2258,10.1011],[79.2285,10.0903],[79.2366,10.0766],[79.246,10.0738],[79.252,10.0657],[79.2518,10.0511],[79.2555,10.0451],[79.266,10.0393],[79.2443,10.0273],[79.2165,9.9976],[79.2148,10.0001],[79.2161,9.9968],[79.1984,9.9734],[79.1551,9.9316],[79.1515,9.9161],[79.1289,9.8949],[79.1192,9.8772],[79.1184,9.8666],[79.1239,9.8652],[79.1189,9.8524],[79.0879,9.8232],[79.0817,9.8138],[79.0787,9.8005],[79.0696,9.7931],[79.059,9.773],[79.0373,9.7629],[78.9803,9.6896],[78.9703,9.6651],[78.9709,9.6558],[78.9639,9.6406],[78.9593,9.6421],[78.96,9.6312],[78.9374,9.6081],[78.9268,9.5851],[78.9191,9.542],[78.9198,9.5254],[78.9133,9.5056],[78.9144,9.493],[78.9044,9.4937],[78.8984,9.4896],[78.8984,9.4773],[78.9027,9.4635],[78.9361,9.4092],[78.9964,9.3475],[79.0328,9.3191],[79.0665,9.298],[79.1305,9.2881],[79.1412,9.2919],[79.1599,9.284],[79.2097,9.2829],[79.2209,9.2912],[79.2671,9.2928],[79.2814,9.3126],[79.3108,9.3277],[79.3294,9.3202],[79.3352,9.3087],[79.3265,9.2929],[79.3146,9.2837],[79.3157,9.2741],[79.3263,9.2588],[79.374,9.2149],[79.4234,9.1771],[79.4327,9.1653],[79.4328,9.1609],[79.4158,9.1765],[79.3392,9.2252],[79.2999,9.2458],[79.2565,9.2589],[79.2283,9.2586],[79.2168,9.2553],[79.2184,9.2701],[79.2147,9.2658],[79.2058,9.2745],[79.2076,9.271],[79.203,9.2677],[79.2043,9.2773],[79.2086,9.2817],[79.1529,9.2763],[79.1449,9.2685],[79.1271,9.27],[79.0897,9.2602],[79.0643,9.2604],[78.9956,9.2734],[78.9646,9.274],[78.9259,9.2671],[78.918,9.2616],[78.9119,9.2637],[78.9162,9.2599],[78.908,9.2497],[78.8758,9.2573],[78.8667,9.254],[78.861,9.2555],[78.8523,9.247],[78.8326,9.2457],[78.8221,9.2388],[78.8049,9.2361],[78.7931,9.2288],[78.7793,9.2268],[78.7553,9.2156],[78.7326,9.2116],[78.7174,9.2009],[78.7194,9.192],[78.7166,9.1891],[78.6854,9.1953],[78.6641,9.1935],[78.6472,9.1843],[78.6428,9.1759],[78.643,9.1692],[78.6574,9.1577],[78.6061,9.1478],[78.5785,9.1304],[78.556,9.1367],[78.5322,9.1374],[78.5032,9.1332],[78.4872,9.1275],[78.4554,9.125],[78.4117,9.1125],[78.3755,9.0872],[78.3526,9.0657],[78.2693,9.0032],[78.2664,8.9977],[78.2462,8.9885],[78.22,8.9656],[78.2182,8.9684],[78.2192,8.9645],[78.194,8.9298],[78.1903,8.9284],[78.1933,8.9292],[78.1818,8.9027],[78.1823,8.8911],[78.1778,8.8906],[78.1717,8.8829],[78.167,8.8412],[78.1708,8.83],[78.1656,8.8225],[78.1682,8.8159],[78.1603,8.803],[78.1631,8.7951],[78.1606,8.7747],[78.1643,8.7741],[78.1656,8.7638],[78.168,8.7633],[78.1699,8.7758],[78.1691,8.7632],[78.1717,8.7706],[78.1765,8.7726],[78.175,8.768],[78.1783,8.7722],[78.1874,8.7706],[78.1907,8.7685],[78.1914,8.7626],[78.197,8.7627],[78.198,8.7698],[78.1913,8.7672],[78.1989,8.7715],[78.2015,8.7771],[78.1978,8.7868],[78.2005,8.7929],[78.203,8.7901],[78.2008,8.768],[78.2028,8.7637],[78.1998,8.7574],[78.202,8.756],[78.1968,8.7572],[78.1954,8.7516],[78.1636,8.7239],[78.1518,8.6972],[78.1385,8.6802],[78.135,8.6162],[78.1447,8.598],[78.1306,8.5479],[78.1357,8.537],[78.1433,8.5017],[78.13,8.4851],[78.1308,8.4807],[78.1258,8.4747],[78.0963,8.4491],[78.0637,8.4124],[78.0567,8.3846],[78.0584,8.3779],[78.0671,8.3757],[78.0664,8.3738],[77.9915,8.3501],[77.9704,8.3346],[77.9491,8.3116],[77.9147,8.2918],[77.8909,8.2705],[77.8411,8.2517],[77.8326,8.2291],[77.8045,8.203],[77.8025,8.1943],[77.8057,8.1805],[77.7937,8.1623],[77.7739,8.1562],[77.758,8.1453],[77.7296,8.1641],[77.6422,8.1543],[77.6169,8.1446],[77.6045,8.1472],[77.5828,8.1373],[77.5666,8.1184],[77.5659,8.1015],[77.5712,8.0933],[77.5614,8.0881],[77.5559,8.0766],[77.5309,8.0767],[77.529,8.0805],[77.499,8.0848],[77.4837,8.0903],[77.4836,8.0881],[77.439,8.0963],[77.3685,8.1165],[77.357,8.1224],[77.3314,8.1274],[77.3153,8.1222],[77.3098,8.126656896551724],[77.3098,8.1259],[77.3051,8.129],[77.30913128153381,8.127198789101918],[77.3037,8.1316],[77.3041,8.1373],[77.2987,8.1465],[77.2744,8.1632],[77.2547,8.1722],[77.2479,8.1714],[77.2328,8.1803],[77.2237,8.1958],[77.1862,8.2171],[77.1729,8.2336],[77.1522,8.2519],[77.0977,8.2936],[77.103,8.3064],[77.1134,8.3041],[77.1162,8.3094],[77.1224,8.3089],[77.1239,8.3119],[77.1188,8.3165],[77.119,8.3209],[77.1291,8.3215],[77.1287,8.3246],[77.1482,8.3317],[77.1533,8.3269],[77.1685,8.3326],[77.1728,8.3188],[77.1803,8.3234],[77.1693,8.3347],[77.1665,8.3425],[77.1751,8.35],[77.1739,8.3585],[77.1676,8.3634],[77.1524,8.3551],[77.1608,8.3736],[77.1594,8.3812],[77.1516,8.3811],[77.1507,8.3845],[77.1606,8.3894],[77.1677,8.3837],[77.1817,8.3961],[77.1826,8.4049],[77.1969,8.4196],[77.196,8.4289],[77.2032,8.4351],[77.206,8.444],[77.227,8.4467],[77.2252,8.4596],[77.213,8.4704],[77.2104,8.4919],[77.2011,8.4977],[77.2013,8.501],[77.2103,8.5062],[77.2135,8.512],[77.2294,8.5082],[77.2387,8.496],[77.2437,8.497],[77.2512,8.5055],[77.2616,8.5063],[77.2746,8.5377],[77.2838,8.5469],[77.2742,8.5598],[77.2749,8.5658],[77.2663,8.5853],[77.2571,8.5906],[77.2551,8.5975],[77.2464,8.6036],[77.252,8.6084],[77.2514,8.6203],[77.2484,8.6243],[77.244,8.6219],[77.2346,8.627],[77.2293,8.6399],[77.2247,8.6392],[77.2142,8.6493],[77.2083,8.6638],[77.2009,8.669],[77.2079,8.6793],[77.2067,8.6845],[77.1949,8.7079],[77.1813,8.7172],[77.1772,8.725],[77.1787,8.732],[77.17,8.7419],[77.1725,8.7496],[77.177,8.7438],[77.191,8.7416],[77.1982,8.7536],[77.2001,8.7628],[77.1969,8.7683],[77.2038,8.769],[77.2094,8.7649],[77.2175,8.7677],[77.2183,8.7711],[77.213,8.7786],[77.2197,8.7786],[77.2297,8.7847],[77.232,8.8072],[77.2423,8.8094],[77.2479,8.817],[77.2471,8.8237],[77.264,8.8421],[77.2598,8.8514],[77.2625,8.8553],[77.2573,8.8617],[77.26,8.8653],[77.2583,8.875],[77.2553,8.8793],[77.2449,8.8802],[77.2376,8.8858],[77.2385,8.8979],[77.2211,8.9041],[77.2182,8.9167],[77.2238,8.9243],[77.2213,8.9275],[77.2104,8.932],[77.2029,8.9231],[77.1927,8.9263],[77.1971,8.9355],[77.1938,8.9434],[77.1962,8.9547],[77.1855,8.9703],[77.1781,8.9692],[77.1735,8.9913],[77.1616,8.9952],[77.1568,9.0076],[77.1493,9.0097],[77.1506,9.015],[77.147,9.0214],[77.1537,9.0221],[77.1609,9.0292],[77.1605,9.0357],[77.167,9.0449],[77.1828,9.0468],[77.1869,9.0428],[77.1972,9.0466],[77.1967,9.0566],[77.2088,9.0742],[77.2057,9.0845],[77.2121,9.0999],[77.2187,9.1009],[77.2261,9.1075],[77.2281,9.1162],[77.2414,9.1243],[77.2469,9.1239],[77.2534,9.1396],[77.2678,9.1534],[77.2658,9.1649],[77.2682,9.1753],[77.2643,9.1862],[77.2525,9.1895],[77.2563,9.1994],[77.2707,9.2009],[77.2707,9.2052],[77.2822,9.2169],[77.2753,9.2348],[77.2825,9.2561],[77.2827,9.2733],[77.2885,9.2743],[77.283,9.3014],[77.2884,9.3018],[77.2995,9.311],[77.3026,9.3191],[77.2972,9.3293],[77.3009,9.3302],[77.3,9.3368],[77.3155,9.335],[77.3252,9.3372],[77.326,9.3467],[77.3372,9.3651],[77.3345,9.3813],[77.3365,9.3874],[77.3413,9.3899],[77.3397,9.3938],[77.3438,9.4022],[77.3364,9.4124],[77.3396,9.4208],[77.3445,9.4245],[77.3493,9.4412],[77.3659,9.4602],[77.3771,9.4529],[77.3925,9.4595],[77.3915,9.4689],[77.3972,9.4704],[77.402,9.4777],[77.3989,9.4815],[77.3992,9.4965],[77.4123,9.5091],[77.4082,9.5149],[77.4003,9.518],[77.4032,9.5231],[77.4004,9.5275],[77.3851,9.5193],[77.3655,9.5352],[77.365,9.5528],[77.3612,9.558],[77.3528,9.5597],[77.3502,9.5672],[77.3598,9.5775],[77.3549,9.5868],[77.3574,9.5945],[77.3608,9.5979],[77.3661,9.5961],[77.3657,9.5998],[77.3611,9.6024],[77.3545,9.6042],[77.3394,9.5734],[77.3253,9.5801],[77.3245,9.5934],[77.3299,9.5991],[77.3223,9.5984],[77.3177,9.6026],[77.3037,9.5988],[77.2945,9.5893],[77.29,9.5888],[77.2903,9.5849],[77.2769,9.5759],[77.2719,9.5766],[77.2696,9.5729],[77.2583,9.5766],[77.253,9.5831],[77.2427,9.5853],[77.2342,9.5816],[77.2225,9.5929],[77.2221,9.5978],[77.2098,9.6051],[77.2089,9.6136],[77.1981,9.6145],[77.1886,9.6062],[77.1658,9.6129],[77.1691,9.6241],[77.1762,9.6296],[77.174,9.6374],[77.1792,9.6449],[77.1811,9.6593],[77.1875,9.6615],[77.1868,9.6665],[77.1941,9.6706],[77.2067,9.6947],[77.2019,9.704],[77.2061,9.7176],[77.2035,9.7222],[77.2239,9.7304],[77.2202,9.7451],[77.2276,9.7648],[77.2325,9.7691],[77.2251,9.7761],[77.2228,9.7884],[77.2361,9.7906],[77.2403,9.7975],[77.2468,9.7985],[77.2469,9.8086],[77.2413,9.8162],[77.2327,9.818],[77.2328,9.8221],[77.2219,9.8231],[77.2276,9.8387],[77.223,9.8455],[77.2373,9.852],[77.2364,9.8602],[77.2214,9.8637],[77.2125,9.8775],[77.2154,9.878],[77.2176,9.885],[77.2208,9.8851],[77.2183,9.9049],[77.2302,9.9131],[77.2363,9.936],[77.248,9.9475],[77.2466,9.952],[77.2609,9.9526],[77.2728,9.9643],[77.2726,9.9764],[77.2643,9.9873],[77.2668,9.9904],[77.261,9.9918],[77.2649,10.0043],[77.2547,10.0124],[77.2627,10.0217],[77.2639,10.0293],[77.2509,10.0458],[77.2358,10.0585],[77.2316,10.0669],[77.223,10.0707],[77.2185,10.0794],[77.204,10.0885],[77.2012,10.1072],[77.2075,10.1191],[77.2164,10.1164],[77.2305,10.1223],[77.2385,10.1308],[77.2445,10.1319],[77.2519,10.1256],[77.2677,10.1222],[77.2681,10.1278],[77.2749,10.1313],[77.2745,10.1408],[77.2712,10.1424],[77.2746,10.1849],[77.2785,10.1945],[77.2835,10.1977],[77.2857,10.2044],[77.2829,10.2086],[77.2953,10.2185],[77.2882,10.2323],[77.2809,10.2367],[77.2695,10.237],[77.2591,10.2305],[77.2573,10.2595],[77.2636,10.2639],[77.2468,10.2837],[77.2348,10.309],[77.2314,10.3088],[77.2273,10.3166],[77.2288,10.3311],[77.2357,10.34],[77.2353,10.3529],[77.2086,10.3536],[77.2018,10.3581],[77.1954,10.3547],[77.176,10.3586],[77.1202,10.318],[77.102,10.3156],[77.0957,10.3087],[77.0914,10.3151],[77.0785,10.3029],[77.066,10.2982],[77.0632,10.2917],[77.0436,10.2841],[77.0528,10.2723],[77.0484,10.2594],[77.0396,10.2529],[77.0151,10.2456],[76.9836,10.2197],[76.9727,10.225],[76.9707,10.229],[76.9586,10.2335],[76.9507,10.2317],[76.9472,10.2362],[76.9396,10.2382],[76.9219,10.2316],[76.9119,10.2343],[76.9077,10.2403],[76.9026,10.2396],[76.9048,10.2472],[76.8974,10.2614],[76.8913,10.2623],[76.8733,10.2757],[76.8732,10.2975],[76.862,10.2912],[76.8549,10.2921],[76.851,10.2891],[76.8521,10.2843],[76.8486,10.2845],[76.8423,10.2894],[76.8444,10.2944],[76.8403,10.2991],[76.8299,10.3032],[76.8284,10.3071],[76.8374,10.3359],[76.836,10.3454],[76.8459,10.3568],[76.8449,10.3623],[76.8486,10.3674],[76.8437,10.377],[76.834,10.3826],[76.8233,10.3946],[76.8337,10.4028],[76.8333,10.4073],[76.8302,10.4108],[76.8243,10.4096],[76.8229,10.4166],[76.816,10.423],[76.828,10.4497],[76.8303,10.4973],[76.8431,10.5367],[76.8353,10.5446],[76.8356,10.5574],[76.8397,10.5636],[76.8339,10.5734],[76.838,10.5815],[76.8386,10.5963],[76.8324,10.5992],[76.8263,10.5961],[76.8175,10.6027],[76.8167,10.6159],[76.8101,10.6238],[76.8149,10.629],[76.8143,10.635],[76.8208,10.6336],[76.8309,10.6369],[76.8596,10.6317],[76.8821,10.639],[76.8841,10.648],[76.8782,10.6744],[76.867,10.6792],[76.866,10.6848],[76.8706,10.6922],[76.8675,10.6943],[76.8822,10.7168],[76.8922,10.7185],[76.8882,10.7318],[76.896,10.7448],[76.8963,10.7525],[76.9037,10.7618],[76.9027,10.7715],[76.9054,10.7721],[76.9073,10.7834],[76.9008,10.808],[76.8701,10.809],[76.864,10.818],[76.8482,10.8195],[76.8452,10.8268],[76.8533,10.8336],[76.8539,10.8397],[76.8485,10.8501],[76.832,10.8609],[76.8284,10.8726],[76.8168,10.8735],[76.8115,10.8786],[76.7919,10.8818],[76.7815,10.8912],[76.768,10.8878],[76.7613,10.8942],[76.7525,10.8958],[76.7407,10.8911],[76.7385,10.8953],[76.7149,10.9087],[76.6952,10.9103],[76.6767,10.9181],[76.6591,10.9306],[76.6558,10.9391],[76.6647,10.9436],[76.6667,10.9684],[76.686,10.9893],[76.6891,11.0086],[76.6997,11.0267],[76.7182,11.041],[76.7418,11.0382],[76.7666,11.0292],[76.7736,11.0336],[76.7918,11.0374],[76.8008,11.054],[76.7962,11.0559],[76.7878,11.0448],[76.7781,11.0422],[76.7689,11.0435],[76.7607,11.0524],[76.7465,11.0568],[76.7438,11.0731],[76.7497,11.0756],[76.7501,11.079],[76.7546,11.0791],[76.7516,11.0933],[76.7478,11.0934],[76.7434,11.1026],[76.7499,11.1191],[76.7481,11.1355],[76.7345,11.1363],[76.7314,11.1317],[76.7237,11.1389],[76.7189,11.1495],[76.712,11.1509],[76.7083,11.1467],[76.7121,11.1423],[76.7063,11.1416],[76.7002,11.1536],[76.695,11.1668],[76.698,11.1742],[76.7143,11.1877],[76.7228,11.1872],[76.7286,11.1914],[76.7269,11.2075],[76.7355,11.2157],[76.7345,11.2181],[76.7316,11.2173],[76.7252,11.2257],[76.7193,11.2275],[76.7058,11.2404],[76.707,11.2383],[76.6982,11.2396],[76.6842,11.2339],[76.6843,11.2279],[76.6764,11.2202],[76.6524,11.2098],[76.6289,11.1943],[76.6247,11.1958],[76.6155,11.1924],[76.6008,11.1976],[76.5338,11.1857],[76.5157,11.1946],[76.5094,11.2083],[76.499,11.2114],[76.4723,11.2088],[76.4734,11.195],[76.4584,11.1878],[76.4516,11.1995],[76.4386,11.199],[76.4393,11.203],[76.4489,11.2056],[76.4531,11.2395],[76.4871,11.2584],[76.5217,11.2707],[76.5268,11.2886],[76.5457,11.3004],[76.5393,11.3047],[76.5373,11.3141],[76.5499,11.3311],[76.5478,11.359],[76.5082,11.3542],[76.5151,11.3598],[76.5177,11.3716],[76.4604,11.3889],[76.4156,11.4233],[76.4187,11.4419],[76.3979,11.4364],[76.3687,11.4563],[76.3422,11.4677],[76.326,11.4541],[76.3051,11.4679],[76.2948,11.4658],[76.2915,11.4699],[76.2946,11.4742],[76.2844,11.483],[76.2735,11.4771],[76.2647,11.4813],[76.2472,11.468],[76.2514,11.5024],[76.248,11.5157],[76.2397,11.5267],[76.2502,11.527],[76.2515,11.5369],[76.2448,11.5416],[76.2461,11.5455],[76.2423,11.5502],[76.2442,11.5533],[76.2407,11.555],[76.2338,11.5707]],[[77.2268,8.1875],[77.2271,8.1883],[77.2273,8.1873],[77.2268,8.1875]],[[77.2356,8.1756],[77.2373,8.1762],[77.2403,8.1745],[77.2356,8.1756]],[[77.2433,8.1708],[77.2463,8.1716],[77.2451,8.1697],[77.2433,8.1708]],[[77.2503,8.1682],[77.2507,8.1688],[77.251,8.1679],[77.2503,8.1682]],[[77.3006,8.1407],[77.3009,8.1411],[77.3011,8.1407],[77.3006,8.1407]],[[77.3009,8.1414],[77.3012,8.142],[77.3014,8.1414],[77.3009,8.1414]],[[77.3014,8.1406],[77.3018,8.1405],[77.3018,8.1402],[77.3014,8.1406]],[[77.3015,8.1408],[77.3016,8.141],[77.3016,8.1407],[77.3015,8.1408]],[[77.3015,8.1412],[77.3016,8.1415],[77.3017,8.1412],[77.3015,8.1412]],[[77.3102,8.1254],[77.3106,8.1259],[77.3108,8.125],[77.3102,8.1254]],[[77.3171,8.1216],[77.3173,8.1219],[77.3174,8.1215],[77.3171,8.1216]],[[77.3225,8.122],[77.3226,8.1226],[77.3229,8.1224],[77.3225,8.122]],[[77.3246,8.1236],[77.3251,8.1236],[77.325,8.1231],[77.3246,8.1236]],[[78.165,8.798],[78.1655,8.7983],[78.1655,8.7974],[78.165,8.798]],[[78.2039,8.8373],[78.2095,8.8363],[78.2092,8.8339],[78.2047,8.8321],[78.2039,8.8373]],[[78.2081,8.8401],[78.2126,8.838],[78.2134,8.8345],[78.2081,8.8401]],[[78.2178,8.8851],[78.2235,8.8841],[78.2231,8.8816],[78.2185,8.8799],[78.2178,8.8851]],[[78.2207,8.8726],[78.2257,8.8729],[78.2265,8.8664],[78.2207,8.8726]],[[78.2501,8.9514],[78.2506,8.9511],[78.2503,8.951],[78.2501,8.9514]],[[78.2512,8.9498],[78.2527,8.9563],[78.2553,8.9549],[78.2548,8.9485],[78.2512,8.9498]],[[78.2668,8.9373],[78.2707,8.941],[78.2691,8.9368],[78.2668,8.9373]],[[78.2722,8.9411],[78.2724,8.9417],[78.2725,8.9411],[78.2722,8.9411]],[[78.4866,9.0886],[78.4902,9.0943],[78.4964,9.0909],[78.4941,9.0858],[78.4866,9.0886]],[[78.5349,9.1026],[78.5389,9.1062],[78.5369,9.102],[78.5349,9.1026]],[[78.5706,9.1015],[78.5793,9.1129],[78.5816,9.111],[78.5861,9.1117],[78.5884,9.1071],[78.5791,9.0999],[78.5706,9.1015]],[[78.6937,9.1527],[78.6962,9.1559],[78.6957,9.1508],[78.6937,9.1527]],[[78.6979,9.1584],[78.6987,9.1587],[78.6983,9.1581],[78.6979,9.1584]],[[78.7018,9.1861],[78.7035,9.1851],[78.7041,9.1841],[78.7018,9.1861]],[[78.7279,9.153],[78.7319,9.1545],[78.7309,9.1522],[78.7279,9.153]],[[78.7509,9.1568],[78.7521,9.1572],[78.7524,9.1558],[78.7509,9.1568]],[[78.7528,9.1534],[78.7549,9.1542],[78.7542,9.1534],[78.7528,9.1534]],[[78.8148,9.1607],[78.8162,9.1603],[78.8161,9.1599],[78.8148,9.1607]],[[78.8167,9.1601],[78.8194,9.1657],[78.8236,9.1662],[78.8167,9.1601]],[[78.8189,9.1603],[78.8203,9.1605],[78.8223,9.16],[78.8189,9.1603]],[[78.8239,9.1667],[78.8285,9.1737],[78.8262,9.1665],[78.8239,9.1667]],[[78.8245,9.1596],[78.8257,9.16],[78.8265,9.159],[78.8245,9.1596]],[[78.8972,9.1796],[78.9061,9.1851],[78.9085,9.1815],[78.9251,9.1848],[78.93275455053043,9.182314756321288],[78.8972,9.1796]],[[78.91,9.1862],[78.91,9.1866],[78.9104,9.1861],[78.91,9.1862]],[[78.93275455053043,9.182314756321288],[78.9328455852156,9.182321707245526],[78.9328,9.1823],[78.93275455053043,9.182314756321288]],[[78.9328455852156,9.182321707245526],[78.9433,9.1873],[78.9378,9.1827],[78.9328455852156,9.182321707245526]],[[78.9665,9.1867],[78.9693,9.1861],[78.9709,9.1848],[78.9684,9.1859],[78.9674,9.1826],[78.9665,9.1867]],[[78.969,9.1826],[78.9692,9.184],[78.9698,9.1823],[78.969,9.1826]],[[79.0567,9.1969],[79.0688,9.2095],[79.071,9.2041],[79.077,9.2011],[79.0832,9.2017],[79.0835,9.1987],[79.088,9.1992],[79.0909,9.1948],[79.0862,9.1906],[79.0664,9.1994],[79.0588,9.1949],[79.0567,9.1969]],[[79.1226,9.2138],[79.1239,9.2136],[79.1233,9.2135],[79.1226,9.2138]],[[79.1229,9.2152],[79.134,9.2151],[79.1294,9.2129],[79.1229,9.2152]],[[79.1237,9.2183],[79.1237,9.2212],[79.1321,9.2197],[79.1447,9.2249],[79.1551,9.2208],[79.1649,9.214],[79.1646,9.209],[79.1557,9.209],[79.1632,9.2093],[79.1642,9.2119],[79.1556,9.2178],[79.1361,9.2156],[79.1237,9.2183]],[[79.1352,9.2536],[79.1373,9.2559],[79.1398,9.2537],[79.1378,9.2515],[79.1352,9.2536]],[[79.1376,9.2359],[79.1394,9.2383],[79.1422,9.2364],[79.1406,9.234],[79.1376,9.2359]],[[79.1388,9.2125],[79.1414,9.2134],[79.1406,9.2124],[79.1388,9.2125]],[[79.1438,9.2384],[79.146,9.2428],[79.1506,9.24],[79.1479,9.236],[79.1438,9.2384]],[[79.1442,9.2315],[79.1461,9.2346],[79.1485,9.2332],[79.1469,9.2301],[79.1442,9.2315]],[[79.1586,9.2388],[79.161,9.2383],[79.1602,9.2359],[79.1586,9.2388]],[[79.1749,9.2398],[79.18,9.2491],[79.1914,9.257],[79.1993,9.2569],[79.2114,9.2507],[79.2256,9.2501],[79.2214,9.2406],[79.2047,9.226],[79.192,9.2238],[79.1749,9.2398]],[[79.2289,9.2419],[79.2329,9.2487],[79.2403,9.2424],[79.2378,9.2356],[79.2334,9.2361],[79.2289,9.2419]],[[79.4435,9.1567],[79.4458,9.158],[79.4472,9.1528],[79.4435,9.1567]],[[79.4445,9.1524],[79.4455,9.1539],[79.445,9.1512],[79.4445,9.1524]],[[79.45,9.1481],[79.4537,9.1487],[79.4526,9.1465],[79.45,9.1481]],[[79.4537,9.144],[79.4541,9.1457],[79.4546,9.1454],[79.4543,9.1438],[79.4537,9.144]],[[79.455,9.1472],[79.4557,9.1477],[79.4564,9.1471],[79.455,9.1472]],[[79.4651,9.1434],[79.4674,9.1435],[79.468,9.1407],[79.4651,9.1434]],[[79.4697,9.1395],[79.4728,9.1393],[79.4739,9.1354],[79.4697,9.1395]],[[79.4797,9.1298],[79.4818,9.1303],[79.4816,9.1288],[79.4797,9.1298]],[[79.4815,9.133],[79.4828,9.1334],[79.48279545454545,9.133388636363636],[79.4815,9.133]],[[79.4822,9.1319],[79.48279545454545,9.133388636363636],[79.4835,9.1336],[79.4822,9.1319]],[[79.487,9.1273],[79.4888,9.1275],[79.4882,9.1265],[79.487,9.1273]],[[79.4892,9.1191],[79.4918,9.1241],[79.4965,9.1249],[79.4892,9.1191]],[[79.7691,11.9007],[79.7751,11.9019],[79.7753,11.905],[79.7814,11.9028],[79.7879,11.8968],[79.7964,11.8999],[79.7965,11.895],[79.7923,11.8769],[79.7872,11.8735],[79.7851,11.863],[79.7806,11.8628],[79.7777,11.8666],[79.7796,11.878],[79.7726,11.8759],[79.7705,11.8909],[79.7728,11.9005],[79.7691,11.9007]]],[[[79.5993,11.8829],[79.6029,11.8701],[79.602,11.8578],[79.6194,11.8627],[79.6191,11.8701],[79.6285,11.8698],[79.6264,11.8548],[79.6286,11.8539],[79.6528,11.8505],[79.6578,11.8527],[79.6634,11.8613],[79.6627,11.8673],[79.6485,11.8705],[79.6484,11.8803],[79.6405,11.8806],[79.6411,11.8866],[79.6348,11.8888],[79.6345,11.881],[79.6297,11.8813],[79.6297,11.8886],[79.6212,11.8906],[79.6175,11.8839],[79.6082,11.8769],[79.5993,11.8829]]],[[[79.6171,11.9896],[79.618,11.9849],[79.6244,11.9818],[79.6245,11.976],[79.6185,11.9699],[79.6275,11.9681],[79.6285,11.9452],[79.6189,11.9432],[79.6179,11.9361],[79.6184,11.9261],[79.6283,11.9196],[79.6253,11.903],[79.6321,11.9013],[79.6406,11.9022],[79.6411,11.9077],[79.6559,11.9079],[79.656,11.9129],[79.6626,11.9131],[79.661,11.9163],[79.6689,11.9184],[79.6705,11.9298],[79.6693,11.9375],[79.6607,11.9371],[79.6574,11.9481],[79.6529,11.9482],[79.652,11.9436],[79.6427,11.9421],[79.6422,11.9539],[79.6473,11.9534],[79.6483,11.9673],[79.6413,11.9704],[79.6403,11.9762],[79.6364,11.9778],[79.6384,11.9863],[79.64,11.9927],[79.6364,11.998],[79.6423,11.9993],[79.6514,12.0223],[79.644,12.0276],[79.6375,12.0267],[79.6264,12.0319],[79.6292,12.0187],[79.621,12.0143],[79.6188,12.0019],[79.6261,11.9996],[79.6236,11.9893],[79.6171,11.9896]]],[[[79.641,11.8241],[79.647,11.8197],[79.6463,11.8163],[79.6596,11.8128],[79.6712,11.8149],[79.6713,11.8236],[79.6636,11.8251],[79.6594,11.8295],[79.6617,11.8393],[79.6473,11.8442],[79.641,11.8241]]],[[[79.6538,11.9606],[79.6545,11.9537],[79.6588,11.95],[79.6733,11.9479],[79.6846,11.9534],[79.6865,11.9732],[79.6803,11.9728],[79.6767,11.9681],[79.6622,11.9691],[79.66,11.9584],[79.6538,11.9606]]],[[[79.6569,11.9916],[79.6625,11.9895],[79.6738,11.9951],[79.6808,11.9833],[79.6854,11.9916],[79.6935,11.9899],[79.7056,11.9946],[79.7158,11.9905],[79.7196,11.9922],[79.7175,11.9977],[79.7028,12.0111],[79.7048,12.032],[79.6928,12.0353],[79.6912,12.0286],[79.6842,12.0217],[79.6765,12.0216],[79.6722,12.0097],[79.6614,12.0123],[79.6569,11.9916]]],[[[79.6746,11.8036],[79.6813,11.7963],[79.6839,11.8022],[79.6896,11.8021],[79.6905,11.8085],[79.6881,11.8122],[79.6793,11.8146],[79.6759,11.8143],[79.6746,11.8036]]],[[[79.692,11.8142],[79.7026,11.8135],[79.7003,11.8217],[79.6926,11.8225],[79.692,11.8142]]],[[[79.696,11.8604],[79.6991,11.8613],[79.6994,11.8743],[79.6971,11.874],[79.696,11.8604]]],[[[79.7202,10.9361],[79.7216,10.935],[79.7216,10.9383],[79.7202,10.9361]]],[[[79.7388,10.9205],[79.7397,10.9202],[79.7394,10.9214],[79.7388,10.9205]]],[[[79.7883,12.0192],[79.7983,12.017],[79.8041,12.0201],[79.8053,12.0245],[79.7893,12.0277],[79.7883,12.0192]]],[[[79.806,10.8797],[79.8069,10.8777],[79.8097,10.8805],[79.806,10.8797]]]]}}